id,name,address,latitude,longitude,region,type_id,type_name,notes,product,product,product,service,service,service,service,service,region,region
1771,7-Eleven,"100 Ferny Avenue, Surfers Paradise, Queensland, Australia",-27.995306,153.427407,Gold Coast,1,Standard retailer,,,,,,,,,,Gold Coast,
18,7-Eleven 120 Edward Street Brisbane,"120 Edward Street, Brisbane , Brisbane Central",-27.4702,153.028,Brisbane Central,1,Standard retailer,,go card,,,Buy,Top up,Change expiry date,,,,
19,7-Eleven 136 Queen Street Brisbane,"136 Queen Street (Cnr Albert and Burnett Lane), Brisbane , Brisbane Central",-27.4693,153.025,Brisbane Central,1,Standard retailer,,go card,,,Buy,Top up,Change expiry date,,,,
20,7-Eleven 174 Adelaide Street Brisbane,"174 Adelaide Street, Brisbane , Brisbane Central",-27.4675,153.026,Brisbane Central,1,Standard retailer,,go card,,,Buy,Top up,Change expiry date,,,,
21,7-Eleven 189 George Street Brisbane,"189 George Street, Brisbane , Brisbane Central",-27.4714,153.024,Brisbane Central,1,Standard retailer,,go card,,,Buy,Top up,Change expiry date,,,,
22,7-Eleven 231 George Street Brisbane,"231 George Street, Brisbane , Brisbane Central",-27.4706,153.023,Brisbane Central,1,Standard retailer,,go card,,,Buy,Top up,Change expiry date,,,Brisbane,
25,7-Eleven 333 George Street Brisbane,"corner George and Turbot Streets, Brisbane , Brisbane Central",-27.4687,153.022,Brisbane Central,1,Standard retailer,,go card,,,Buy,Top up,Change expiry date,,,,
697,7-Eleven Adelaide Street,"47 - 59 Adelaide Street, Brisbane , Brisbane Central",-27.46957,153.023727,Brisbane Central,1,Standard retailer,,go card,,,Buy,Top up,Change expiry date,,,,
6,7-Eleven Albany Creek,"70 Albany Creek Road, Albany Creek, Brisbane North",-27.364,153.013,Brisbane North,1,Standard retailer,,go card,,,Buy,Top up,Change expiry date,,,,
28,7-Eleven Albert Street Brisbane,"97 Albert Street, Brisbane , Brisbane Central",-27.4715,153.027,Brisbane Central,1,Standard retailer,,go card,,,Buy,Top up,Change expiry date,,,,
3,7-Eleven Algester,"169 Algester Road, Algester, Brisbane South",-27.6125,153.039,Brisbane South,1,Standard retailer,,go card,,,Buy,Top up,Change expiry date,,,,
1246,7-Eleven Ashgrove,"268 Waterworks Road, Ashgrove, Queensland, Australia",-27.446136,152.990995,,1,Standard retailer,,,,,,,,,,Brisbane,
5,7-Eleven Ashmore,"400 Nerang Road, Southport, Queensland, Australia",-27.979071,153.379559,Gold Coast,1,Standard retailer,,go card,Gold Coast go explore card,,Buy,Top up,Change expiry date,,,Gold Coast,
961,7-Eleven Ashmore,"579 Ashmore Road, Molendinar, Queensland, Australia",-27.984646,153.365587,,1,Standard retailer,,go card,Gold Coast go explore card,,Buy,Top up,Change expiry date,,,Gold Coast,
1251,7-Eleven Aspley,"1429 Gympie Road, Aspley, Queensland, Australia",-27.358375,153.017324,,1,Standard retailer,,,,,,,,,,Brisbane,
1811,7-Eleven Aspley,"581 Robinson Road West, Aspley, Queensland, Australia",-27.364937,153.026186,Brisbane,1,Standard retailer,,,,,,,,,,Brisbane,
26,7-Eleven Aurora Brisbane,"420 Queen Street, corner Wharf Street, Brisbane , Brisbane Central",-27.4652,153.03,Brisbane Central,1,Standard retailer,,go card,,,Buy,Top up,Change expiry date,,,,
8,7-Eleven Beenleigh,"2-6 City Road, Beenleigh, Southern",-27.7078,153.204,Southern,1,Standard retailer,,go card,,,Buy,Top up,Change expiry date,,,,
1256,7-Eleven Bellbird Park,"354 Redbank Plains Road, Bellbird Park, Queensland, Australia",-27.645243,152.872206,,1,Standard retailer,,,,,,,,,,Brisbane,
10,7-Eleven Birkdale,"2 Bailey Road, Birkdale, Queensland, Australia",-27.509518,153.207051,Redlands,1,Standard retailer,,go card,,,Buy,Top up,Change expiry date,,,Redlands,
12,7-Eleven Boronia Heights,"Cnr Coronation Road and Middle Road, Boronia Heights",-27.678743,153.021835,Brisbane,1,Standard retailer,,go card,,,Buy,Top up,Change expiry date,,,Brisbane,
14,7-Eleven Bracken Ridge,"Telegraph Road, corner Norris Road, Bracken Ridge, Brisbane North",-27.3307,153.026,Brisbane North,1,Standard retailer,,go card,,,Buy,Top up,Change expiry date,,,,
15,7-Eleven Brassall,"21 Hunter Street, Brassall, Western",-27.5938,152.746,Western,1,Standard retailer,,go card,,,Buy,Top up,Change expiry date,,,,
16,7-Eleven Bray Park,"339 Samsonvale Road, Joyner, Queensland, Australia",-27.2915,152.953,Brisbane,1,Standard retailer,,go card,,,Buy,Top up,Change expiry date,,,Brisbane,
911,7-Eleven Broadbeach,"34 Hooker Boulevard, Broadbeach, Queensland, Australia",-28.035402,153.425076,,1,Standard retailer,,go card,Gold Coast go explore card,,Buy,Top up,Change expiry date,,,Gold Coast,
1261,7-Eleven Browns Plains,"267-273 Browns Plains Road, Crestmead, Queensland, Australia",-27.664117,153.061427,Brisbane,1,Standard retailer,,,,,,,,,,Brisbane,
1276,7-Eleven Brunswick Street Mall,"281 Brunswick Street, Fortitude Valley, Queensland, Australia",-27.457771,153.033842,,1,Standard retailer,,,,,,,,,,Brisbane,
991,7-Eleven Burleigh Central,"11 Connor Street, Burleigh Heads, Queensland, Australia",-28.088982,153.451783,,1,Standard retailer,,go card,Gold Coast go explore card,,Buy,Top up,Change expiry date,,,Gold Coast,
58,7-Eleven Burleigh Heads,"1957 Gold Coast Highway, Burleigh Heads, Queensland, Australia",-28.078227,153.446216,Gold Coast,1,Standard retailer,,go card,Gold Coast go explore card,,Buy,Top up,Change expiry date,,,Gold Coast,
64,7-Eleven Carina,"1505 Creek Road, Carina, Brisbane East",-27.4877,153.1,Brisbane,1,Standard retailer,,go card,,,Buy,Top up,Change expiry date,,,Brisbane,
1761,7-Eleven Carrara,"2 Elysium Road, Carrara, Queensland, Australia",-28.03292,153.352822,Gold Coast,1,Standard retailer,,,,,,,,,,Gold Coast,
69,7-Eleven Clontarf,"9 Elizabeth Avenue, Clontarf (Moreton Bay Regional), Northern",-27.2609,153.08,Brisbane,1,Standard retailer,,go card,,,Buy,Top up,Change expiry date,,,Brisbane,
70,7-Eleven Coolangatta,"18 Griffith Street, Coolangatta (Gold Coast City), Gold Coast",-28.16833,153.536129,Gold Coast,1,Standard retailer,,go card,Gold Coast go explore card,,Buy,Top up,Change expiry date,,,Gold Coast,
871,7-Eleven Coolangatta South,"Reflection Tower Two, Marine Parade, Coolangatta, Queensland, Australia",-28.168261,153.541951,,1,Standard retailer,,go card,Gold Coast go explore card,,Buy,Top up,Change expiry date,,,Gold Coast,
971,7-Eleven Coomera,"Dreamworld Parkway, Coomera, Queensland, Australia",-27.868739,153.314545,,1,Standard retailer,,go card,Gold Coast go explore card,,Buy,Top up,Change expiry date,,,Gold Coast,
71,7-Eleven Coopers Plains,"129 Orange Grove Road, Coopers Plains, Brisbane South",-27.5639,153.04,Brisbane,1,Standard retailer,,go card,,,Buy,Top up,Change expiry date,,,Brisbane,
29,7-Eleven Creek Street Brisbane,"99 Creek Street, Brisbane , Brisbane Central",-27.4662,153.028,Brisbane,1,Standard retailer,,go card,,,Buy,Top up,Change expiry date,,,Brisbane,
1816,7-Eleven Dakabin,"205 Old Gympie Road, Dakabin, Queensland, Australia",-27.232063,152.992466,Brisbane,1,Standard retailer,,,,,,,,,,Brisbane,
75,7-Eleven Deagon,"11 Depot Road, Deagon, Brisbane North",-27.3284,153.054,Brisbane,1,Standard retailer,,go card,,,Buy,Top up,Change expiry date,,,Brisbane,
1621,7-Eleven Deception Bay,"1 Baylink Avenue, Deception Bay, QLD, 4508, Australia",-27.196441,153.014624,Brisbane,1,Standard retailer,,,,,,,,,,Brisbane,
76,7-Eleven Dinmore,"29-31 Brisbane Road, Dinmore, Western",-27.5979,152.832,Brisbane,1,Standard retailer,,go card,,,Buy,Top up,Change expiry date,,,Brisbane,
77,7-Eleven Durack,"14 Rosemary Street, Durack, Brisbane South",-27.5792,152.975,Brisbane,1,Standard retailer,,go card,,,Buy,Top up,Change expiry date,,,Brisbane,
1706,7-Eleven Eagleby,"126 River Hills Road, Eagleby, Queensland, Australia",-27.701867,153.211285,Logan,1,Standard retailer,,,,,,,,,,Logan,
79,7-Eleven East Beenleigh,"79 Logan River Road, East Beenleigh, Southern",-27.7134,153.185,Logan,1,Standard retailer,,go card,,,Buy,Top up,Change expiry date,,,Logan,
80,7-Eleven East Brisbane,"508 Vulture Street, East Brisbane, Brisbane East",-27.4847,153.039,Brisbane,1,Standard retailer,,go card,,,Buy,Top up,Change expiry date,,,Brisbane,
1271,7-Eleven Eatons Hill,"2-4 Bunya Park Drive, Eatons Hill, Queensland, Australia",-27.337817,152.96021,Brisbane,1,Standard retailer,,,,,,,,,,Brisbane,
81,7-Eleven Fairfield Gardens,"180 Fairfield Road, Fairfield Gardens, Brisbane South",-27.509,153.026,Brisbane,1,Standard retailer,,go card,,,Buy,Top up,Change expiry date,,,Brisbane,
84,7-Eleven Fortitude Valley,"376 Brunswick Street, Fortitude Valley, Brisbane Central",-27.4589,153.036,Brisbane,1,Standard retailer,,go card,,,Buy,Top up,Change expiry date,,,Brisbane,
1286,7-Eleven Gaven,"1 Binstead Way, Pacific Pines, Queensland, Australia",-27.926171,153.323605,,1,Standard retailer,,,,,,,,,,Brisbane,
86,7-Eleven Graceville,"246 Oxley Road, Graceville, Brisbane South",-27.5219,152.98,Brisbane,1,Standard retailer,,go card,,,Buy,Top up,Change expiry date,,,Brisbane,
87,7-Eleven Grange,"Days Road, corner Kedron Brook Road, Grange, Brisbane North",-27.4266,153.019,Brisbane,1,Standard retailer,,go card,,,Buy,Top up,Change expiry date,,,Brisbane,
1291,7-Eleven Greenslopes,"99 Juliette Street and Earl Street, Greenslopes, Queensland, Australia",-27.504502,153.040492,,1,Standard retailer,,,,,,,,,,Brisbane,
1756,7-Eleven Gumdale ,"689 New Cleveland Road, Gumdale, Queensland, Australia",-27.491261,153.152989,Brisbane,1,Standard retailer,,,,,,,,,,Brisbane,
89,7-Eleven Hamilton,"Kingsford Smith Drive, corner and Racecourse Road, Hamilton, Brisbane North",-27.441,153.046,Brisbane,1,Standard retailer,,go card,,,Buy,Top up,Change expiry date,,,Brisbane,
1801,7-Eleven HeathWood ,"15 Stapylton Rd, Heathwood, Queensland, Australia",-27.630653,152.986342,Brisbane,1,Standard retailer,,,,,,,,,,Brisbane,
93,7-Eleven Heritage Park,"118 Waller Road, Heritage Park, Southern",-27.6734,153.053,Brisbane,1,Standard retailer,,go card,,,Buy,Top up,Change expiry date,,,Brisbane,
1796,7-Eleven Holmview ,"324-326 Logan River Road, Holmview, Queensland, Australia",-27.709838,153.161212,Logan,1,Standard retailer,,,,,,,,,,Logan,
95,7-Eleven Hope Island,"341 Southport-Oxenford Road, Hope Island, Gold Coast",-27.880533,153.334068,Gold Coast,1,Standard retailer,,go card,Gold Coast go explore card,,Buy,Top up,Change expiry date,,,Gold Coast,
976,7-Eleven Hope Island,"87-91 Broadwater Avenue, Hope Island, Queensland, Australia",-27.878307,153.365036,,1,Standard retailer,,go card,Gold Coast go explore card,,Buy,Top up,Change expiry date,,,Gold Coast,
97,7-Eleven Indooroopilly,"14 Station Road, Indooroopilly, Brisbane West",-27.5026,152.975,Brisbane,1,Standard retailer,,go card,,,Buy,Top up,Change expiry date,,,Brisbane,
100,7-Eleven Jindalee,"721 Seventeen Mile Rock Road, Jindalee, Brisbane West",-27.5373,152.95,Brisbane,1,Standard retailer,,go card,,,Buy,Top up,Change expiry date,,,Brisbane,
101,7-Eleven Kedron,"Cnr Gympie Road and Nundah Street, Kedron, Brisbane North",-27.4008,153.032,Brisbane,1,Standard retailer,,go card,,,Buy,Top up,Change expiry date,,,Brisbane,
103,7-Eleven Kenmore,"2058-2062 Moggill Road, Kenmore, Brisbane West",-27.5102,152.938,Brisbane,1,Standard retailer,,go card,,,Buy,Top up,Change expiry date,,,Brisbane,
558,7-Eleven Kensington Hills,"1 Sovereign Avenue, Bray Park (Moreton Bay Regional), Northern",-27.2971,152.975,Brisbane,1,Standard retailer,,go card,,,Buy,Top up,Change expiry date,,,Brisbane,
105,7-Eleven Kingston,"Kingston Road, corner Wanda Street, Kingston",-27.6449,153.118,Brisbane,1,Standard retailer,,go card,,,Buy,Top up,Change expiry date,,,Brisbane,
1626,7-Eleven Kingston,"1 Juers Street, Kingston, Queensland, Australia",-27.660196,153.11775,South East Queensland,1,Standard retailer,,,,,,,,,,South East Queensland,
106,7-Eleven Kirra,"Kirra Beach Plaza, Musgrave Road, corner Douglas Road, Kirra, Gold Coast",-28.1678,153.528,Gold Coast,1,Standard retailer,,go card,Gold Coast go explore card,,Buy,Top up,Change expiry date,,,Gold Coast,
107,7-Eleven Labrador,"78-84 Frank Street, Labrador, Gold Coast",-27.9487,153.408,Gold Coast,1,Standard retailer,,go card,Gold Coast go explore card,,Buy,Top up,Change expiry date,,,Gold Coast,
644,7-Eleven Landmark Resort,"Shop 4 Landmark Resort, The Esplanade, Mooloolaba, Sunshine Coast",-26.680953,153.120477,Sunshine Coast,1,Standard retailer,,go card,,,Buy,Top up,Change expiry date,,,Sunshine Coast,
108,7-Eleven Logan City,"120 Wembley Road, Logan City, Southern",-27.6413,153.107,Logan,1,Standard retailer,,go card,,,Buy,Top up,Change expiry date,,,Logan,
109,7-Eleven Lutwyche,"446 Lutwyche Road, Lutwyche, Brisbane North",-27.4247,153.033,Brisbane,1,Standard retailer,,go card,,,Buy,Top up,Change expiry date,,,Brisbane,
1316,7-Eleven Lytton Road,"887 Lytton Road, Murarrie, Queensland, Australia",-27.456767,153.105673,,1,Standard retailer,,,,,,,,,,Brisbane,
110,7-Eleven Mackenzie,"902 Mt Gravatt-Capalaba Road, Mackenzie (Brisbane City), Eastern",-27.5459,153.123,Brisbane,1,Standard retailer,,go card,,,Buy,Top up,Change expiry date,,,Brisbane,
866,7-Eleven Main Beach,"3568 Main Beach Parade, Main Beach, Queensland, Australia",-27.979743,153.42891,,1,Standard retailer,,go card,Gold Coast go explore card,,Buy,Top up,Change expiry date,,,Gold Coast,
113,7-Eleven Manly West,"459 Manly Road, Manly West, Eastern",-27.4755,153.166,Brisbane,1,Standard retailer,,go card,,,Buy,Top up,Change expiry date,,,Brisbane,
114,7-Eleven Marcoola,"Sunshine Coast, 946-948 David Low Way, Marcoola, Queensland, Australia",-26.600659,153.095551,Sunshine Coast,1,Standard retailer,,go card,,,Buy,Top up,Change expiry date,,,Sunshine Coast,
115,7-Eleven Maroochydore,"Aerodrome Road, corner Wirraway Street, Maroochydore, Sunshine Coast",-26.6624,153.105,Sunshine Coast,1,Standard retailer,,go card,,,Buy,Top up,Change expiry date,,,Sunshine Coast,
117,7-Eleven Maroochydore North,"53 Aerodrome Road, Maroochydore, Sunshine Coast",-26.6605,153.1,Sunshine Coast,1,Standard retailer,,go card,,,Buy,Top up,Change expiry date,,,Sunshine Coast,
1296,7-Eleven Marsden,"79-85 Chambers Flat Road, Chambers Flat, Queensland, Australia",-27.680633,153.11473,Brisbane,1,Standard retailer,,,,,,,,,,Brisbane,
1566,7-Eleven Maudsland,"141 Maudsland Road, Oxenford, Queensland, Australia",-27.913145,153.282808,Gold Coast,1,Standard retailer,,,,,,,,,,Gold Coast,
118,7-Eleven Mermaid Waters,"1 Lakeview Boulevard, Mermaid Waters, Queensland, Australia",-28.038297,153.409479,Gold Coast,1,Standard retailer,,go card,Gold Coast go explore card,,Buy,Top up,Change expiry date,,,Gold Coast,
121,7-Eleven Mooloolaba,"85 The Esplanade, Mooloolaba, Sunshine Coast",-26.6841,153.125,Sunshine Coast,1,Standard retailer,,go card,,,Buy,Top up,Change expiry date,,,Sunshine Coast,
1306,7-Eleven Moorvale,"841 Ipswich Road, Moorooka, Queensland, Australia",-27.523933,153.02343,,1,Standard retailer,,,,,,,,,,Brisbane,
122,7-Eleven Morayfield,"272 Morayfield Road, Morayfield, Northern",-27.1123,152.951,Brisbane,1,Standard retailer,,go card,,,Buy,Top up,Change expiry date,,,Brisbane,
1311,7-Eleven Mt Gravatt East,"318 Creek Road, Mount Gravatt East, Queensland, Australia",-27.531895,153.09351,,1,Standard retailer,,,,,,,,,,Brisbane,
124,7-Eleven Murrumba Downs,"9 Blyth Road, Murrumba Downs, Northern",-27.2732,153.015,Brisbane,1,Standard retailer,,go card,,,Buy,Top up,Change expiry date,,,Brisbane,
1321,7-Eleven Nambour,"922 Nambour Connection Road, Nambour, Queensland, Australia",-26.616492,152.969461,,1,Standard retailer,,,,,,,,,,Sunshine Coast,
936,7-Eleven Nerang,"70 Beaudesert-Nerang Road, Nerang, Queensland, Australia",-27.993062,153.333025,,1,Standard retailer,,go card,Gold Coast go explore card,,Buy,Top up,Change expiry date,,,Gold Coast,
128,7-Eleven New Farm,"79 Merthyr Road, New Farm, Brisbane Central",-27.4674,153.046,Brisbane,1,Standard retailer,,go card,,,Buy,Top up,Change expiry date,,,Brisbane,
1326,7-Eleven Newmarket,"85 Enoggera Road, Newmarket, Queensland, Australia",-27.438633,153.007559,Brisbane,1,Standard retailer,,,,,,,,,,Brisbane,
1331,7-Eleven Ningi,"1102 Bribie Island Road, Ningi, Queensland, Australia",-27.061943,153.079498,Moreton Bay,1,Standard retailer,,,,,,,,,,Moreton Bay,
129,7-Eleven Noosa,"91-97 Noosa Drive, Noosa Heads, Sunshine Coast",-26.3971,153.088,Sunshine Coast,1,Standard retailer,,go card,,,Buy,Top up,Change expiry date,,,Sunshine Coast,
716,7-Eleven Noosa,"50 Hastings Street, Noosa Heads, Queensland, Australia",-26.387332,153.091644,Sunshine Coast,1,Standard retailer,,go card,,,Buy,Top up,Change expiry date,,,Sunshine Coast,
1741,7-Eleven North Ipswch,"Cnr Lawrence Street and Downs Street, North Ipswich, Queensland, Australia",-27.60347,152.761634,Ipswich,1,Standard retailer,,,,,,,,,,Ipswich,
1571,7-Eleven North Lakes,"Flinders Parade, North Lakes, Queensland, Australia",-27.220542,152.999797,Moreton Bay,1,Standard retailer,,,,,,,,,,Moreton Bay,
164,7-Eleven Orchid Avenue Surfers Paradise,"7a Cavill Court, Orchid Avenue, Surfers Paradise, Gold Coast",-28.001777,153.429638,Gold Coast,1,Standard retailer,,go card,Gold Coast go explore card,,Buy,Top up,Change expiry date,,,Gold Coast,
1646,7-Eleven Ormeau,"7 Eggersdorf Road, Ormeau, Queensland, Australia",-27.78611,153.258136,Brisbane,1,Standard retailer,,,,,,,,,,Brisbane,
132,7-Eleven Oxenford,"170 Old Pacific Highway, Oxenford, Queensland, Australia",-27.88603,153.313551,Gold Coast,1,Standard retailer,,go card,Gold Coast go explore card,,Buy,Top up,Change expiry date,,,Gold Coast,
861,7-Eleven Pacific Pines,"31 Pitcairn Way, Pacific Pines, Queensland, Australia",-27.946272,153.321239,,1,Standard retailer,,go card,Gold Coast go explore card,,Buy,Top up,Change expiry date,,,Gold Coast,
986,7-Eleven Palm Beach,"1186 Gold Coast Highway, Palm Beach, Queensland, Australia",-28.118114,153.47051,,1,Standard retailer,,go card,Gold Coast go explore card,,Buy,Top up,Change expiry date,,,Gold Coast,
135,7-Eleven Palm Beach North,"1346-1354 Gold Coast Highway, Palm Beach North, Palm Beach, Gold Coast",-28.109083,153.465528,Gold Coast,1,Standard retailer,,go card,Gold Coast go explore card,,Buy,Top up,Change expiry date,,,Gold Coast,
137,7-Eleven Parkwood,"236 Napper Road, Parkwood, Gold Coast",-27.947034,153.350839,Gold Coast,1,Standard retailer,,go card,Gold Coast go explore card,,Buy,Top up,Change expiry date,,,Gold Coast,
856,7-Eleven Pegasus,"2669 Gold Coast Highway, Broadbeach, Queensland, Australia",-28.031868,153.430727,,1,Standard retailer,,go card,Gold Coast go explore card,,Buy,Top up,Change expiry date,,,Gold Coast,
55,7-Eleven Phoenician Broadbeach,"The Phoenician, 90 Surf Parade, Broadbeach, Gold Coast",-28.027816,153.43085,Gold Coast,1,Standard retailer,,go card,Gold Coast go explore card,,Buy,Top up,Change expiry date,,,Gold Coast,
1336,7-Eleven Raceview,"59-63 Raceview Street, Raceview, Queensland, Australia",-27.634837,152.774425,Ipswich,1,Standard retailer,,,,,,,,,,Ipswich,
1346,7-Eleven Rangeville,"85 Perth Street, South Toowoomba, Queensland, Australia",-27.57471,151.968969,,1,Standard retailer,,,,,,,,,,Toowoomba,
138,7-Eleven Red Hill,"152 Musgrave Road, Red Hill (Brisbane City), Brisbane North",-27.4554,153.007,Brisbane,1,Standard retailer,,go card,,,Buy,Top up,Change expiry date,,,Brisbane,
1341,7-eleven Red Hill,"152 Musgrave Road, Red Hill, Queensland, Australia",-27.455465,153.006742,,1,Standard retailer,,,,,,,,,,Brisbane,
139,7-Eleven Redbank Plains,"355 Redbanks Plains Road, Redbank Plains, Western",-27.6449,152.871,Ipswich,1,Standard retailer,,go card,,,Buy,Top up,Change expiry date,,,Ipswich,
140,7-Eleven Redcliffe,"77 Anzac Avenue, Redcliffe, Northern",-27.2305,153.109,Moreton Bay,1,Standard retailer,,go card,,,Buy,Top up,Change expiry date,,,Moreton Bay,
1351,7-Eleven Richlands,"208 Progress Road, Richlands, Queensland, Australia",-27.597943,152.949775,,1,Standard retailer,,,,,,,,,,Brisbane,
142,7-Eleven Riverhills,"Sumners Road, corner Wacol Station Road, Riverhills, Western",-27.5622,152.922,Brisbane,1,Standard retailer,,go card,,,Buy,Top up,Change expiry date,,,Brisbane,
921,7-Eleven Robina,"48-56 Commerce Drive, Robina, Queensland, Australia",-28.065476,153.403905,,1,Standard retailer,,go card,Gold Coast go explore card,,Buy,Top up,Change expiry date,,,Gold Coast,
981,7-Eleven Robina,"253 Scottsdale Drive, Robina, Queensland, Australia",-28.090215,153.390741,,1,Standard retailer,,go card,Gold Coast go explore card,,Buy,Top up,Change expiry date,,,Gold Coast,
1776,7-Eleven Robina Town Centre,"Robina Town Centre Drive, Robina, Queensland, Australia",-28.072856,153.377207,Gold Coast,1,Standard retailer,,,,,,,,,,Gold Coast,
896,7-Eleven Runaway Bay,"20 Bayview Street, Runaway Bay, Queensland, Australia",-27.923565,153.403764,,1,Standard retailer,,go card,Gold Coast go explore card,,Buy,Top up,Change expiry date,,,Gold Coast,
1301,7-Eleven Sanctuary Cove,"87-91 Broadwater Avenue, Hope Island, Queensland, Australia",-27.878122,153.366608,,1,Standard retailer,,,,,,,,,,Gold Coast,
1356,7-Eleven Sandgate,"86 Rainbow Street, Sandgate, Queensland, Australia",-27.32111,153.068175,Brisbane,1,Standard retailer,,,,,,,,,,Brisbane,
146,7-Eleven Silkstone,"Blackstone Road, corner South Station Road, Silkstone, Western",-27.6109,152.79,Western,1,Standard retailer,,go card,,,Buy,Top up,Change expiry date,,,,
573,7-Eleven Southbank TAFE,"Southbank TAFE, 5/97 Merivale Street, South Brisbane, Brisbane Central",-27.4797,153.019,Brisbane Central,1,Standard retailer,,go card,,,Buy,Top up,Change expiry date,,,,
966,7-Eleven Southport,"138 Slatyer Avenue, Ashmore, Queensland, Australia",-27.996317,153.39985,,1,Standard retailer,,go card,Gold Coast go explore card,,Buy,Top up,Change expiry date,,,Gold Coast,
152,7-Eleven Spring Hill,"170 Leichhardt Street, Spring Hill, Brisbane North",-27.462,153.026,Brisbane North,1,Standard retailer,,go card,,,Buy,Top up,Change expiry date,,,,
1361,7-Eleven Springwood,"Cinderella Drive, Springwood, Queensland, Australia",-27.60946,153.124547,,1,Standard retailer,,,,,,,,,,Logan,
1366,7-Eleven Strathpine,"Strathpine Shopping Centre, Strathpine, Queensland, Australia",-27.307691,152.990456,,1,Standard retailer,,,,,,,,,,Brisbane,
160,7-Eleven Sunnybank,"82 Pinelands Road, Sunnybank Hills, Queensland, Australia",-27.591521,153.060465,Brisbane,1,Standard retailer,,go card,,,Buy,Top up,Change expiry date,,,Brisbane,
162,7-Eleven Sunnybank Hills,"Compton Road, corner Gowan Road, Sunnybank Hills, Brisbane South",-27.6112,153.063,Brisbane South,1,Standard retailer,,go card,,,Buy,Top up,Change expiry date,,,,
161,7-Eleven Sunnybank Market Square,"Mains Road, corner McCulloch Street, Sunnybank, Brisbane South",-27.572561,153.065223,Brisbane,1,Standard retailer,,go card,,,Buy,Top up,Change expiry date,,,Brisbane,
163,7-Eleven Surfers Paradise,"3187 Gold Coast Highway, Surfers Paradise, Gold Coast",-27.999044,153.428716,Gold Coast,1,Standard retailer,,go card,Gold Coast go explore card,,Buy,Top up,Change expiry date,,,Gold Coast,
996,7-Eleven Surfers Paradise,"3187 Surfers Paradise Boulevard, Surfers Paradise, Queensland, Australia",-27.999151,153.428591,,1,Standard retailer,,go card,Gold Coast go explore card,,Buy,Top up,Change expiry date,,,Gold Coast,
1641,7-Eleven Taigum,"377 Handford Road, Taigum, Queensland, Australia",-27.342044,153.041343,Brisbane,1,Standard retailer,,,,,,,,,,Brisbane,
1371,7-Eleven The Gap,"1121 Waterworks Road, The Gap, Queensland, Australia",-27.44285,152.943656,,1,Standard retailer,,,,,,,,,,Brisbane,
165,7-Eleven The Paradise Centre Surfers Paradise,"The Paradise Centre, Cavill Avenue, Surfers Paradise, Gold Coast",-28.00215,153.429242,Gold Coast,1,Standard retailer,,go card,Gold Coast go explore card,,Buy,Top up,Change expiry date,,,Gold Coast,
167,7-Eleven Toowong,"50 Sherwood Road, Toowong, Brisbane West",-27.4857,152.991,Brisbane West,1,Standard retailer,,go card,,,Buy,Top up,Change expiry date,,,,
1376,7-Eleven Toowoomba,"328 - 330 James Street, South Toowoomba, Queensland, Australia",-27.566231,151.930743,,1,Standard retailer,,,,,,,,,,Brisbane,
1381,7-Eleven Toowoomba East,"221 Ruthven Street, North Toowoomba, Queensland, Australia",-27.550683,151.954786,,1,Standard retailer,,,,,,,,,,Toowoomba,
30,7-Eleven Transit Centre,"458 George Street, Brisbane , Brisbane Central",-27.467361,153.019897,Brisbane Central,1,Standard retailer,,go card,,,Buy,Top up,Change expiry date,,,,
881,7-Eleven Tweed Heads South,"112 Minjungbal Drive, Tweed Heads South, New South Wales, Australia",-28.207807,153.545211,,1,Standard retailer,,go card,Gold Coast go explore card,,Buy,Top up,Change expiry date,,,Gold Coast,
1281,7-Eleven Valley Metro,"230 Brunswick Street, Fortitude Valley, Queensland, Australia",-27.45679,153.033095,,1,Standard retailer,,,,,,,,,,Brisbane,
1386,7-Eleven Victoria Point,"439-447 Cleveland-Redland Bay Road, Victoria Point, Queensland, Australia",-27.584394,153.281566,Redlands,1,Standard retailer,,,,,,,,,,Redlands,
1806,7-Eleven Virginia ,"2009 Sandgate Road, Virginia, Queensland, Australia",-27.370955,153.063634,Brisbane,1,Standard retailer,,,,,,,,,,Brisbane,
1396,7-Eleven Vulture Street,"82 Vulture Street, West End, Queensland, Australia",-27.48086,153.01192,,1,Standard retailer,,,,,,,,,,Brisbane,
171,7-Eleven Warana,"Nicklin Way, corner Aquatic Drive, Warana, Sunshine Coast",-26.7197,153.13,Sunshine Coast,1,Standard retailer,,go card,,,Buy,Top up,Change expiry date,,,,
1391,7-Eleven Warner,"Old North Road, Warner, Queensland, Australia",-27.310447,152.962742,,1,Standard retailer,,,,,,,,,,Brisbane,
172,7-Eleven West End,"94 Boundary Street, West End (Brisbane City), Brisbane South",-27.4786,153.013,Brisbane South,1,Standard retailer,,go card,,,Buy,Top up,Change expiry date,,,,
174,7-Eleven Windaroo,"159-163 Beenleigh-Beaudesert Road, Windaroo, Southern",-27.7444,153.187,Southern,1,Standard retailer,,go card,,,Buy,Top up,Change expiry date,,,,
175,7-Eleven Wishart,"Mt Gravatt-Capalaba Road, corner Newnham Road, Wishart, Brisbane South",-27.5559,153.09,Brisbane South,1,Standard retailer,,go card,,,Buy,Top up,Change expiry date,,,,
176,7-Eleven Woodridge,"Compton Road, corner North Road, Woodridge, Southern",-27.6187,153.105,Southern,1,Standard retailer,,go card,,,Buy,Top up,Change expiry date,,,,
1401,7-Eleven Woodridge,"Kingston Road, Slacks Creek, Queensland, Australia",-27.620445,153.115424,,1,Standard retailer,,,,,,,,,,Brisbane,
711,7-Eleven Wurtulla,"1 Piringa Street, Wurtulla, Queensland, Australia",-26.759023,153.125012,Airlie Beach,1,Standard retailer,,go card,,,Buy,Top up,Change expiry date,,,Airlie Beach,
179,7-Eleven Wynnum,"Edith Road, corner Tingal Road, Wynnum, Eastern",-27.4462,153.172,Eastern,1,Standard retailer,,go card,,,Buy,Top up,Change expiry date,,,,
180,7-Eleven Yamanto,"130 Ash Street, corner Astral Court, Yamanto, Western",-27.6547,152.754,Western,1,Standard retailer,,go card,,,Buy,Top up,Change expiry date,,,,
181,7-Eleven Yeronga,"563 Fairfield Road, Yeronga, Brisbane South",-27.5195,153.015,Brisbane South,1,Standard retailer,,go card,,,Buy,Top up,Change expiry date,,,,
182,7-Eleven Zillmere,"Zillmere Road, corner Handford Road, Zillmere, Brisbane North",-27.3595,153.038,Brisbane North,1,Standard retailer,,go card,,,Buy,Top up,Change expiry date,,,,
412,Airtrain Domestic Terminal (Brisbane Airport),"Airport Drive, Airport (Brisbane), Brisbane East",-27.3852,153.119,Brisbane,6,Rail ticket office,,go card,SEEQ card,Visitor Information Pack,Buy,Top up,Refund,Change expiry date,,Brisbane,
413,Airtrain International Terminal (Brisbane Airport),"Airport Drive, Airport (Brisbane), Brisbane East",-27.403,153.109,Brisbane,6,Rail ticket office,,go card,SEEQ card,Visitor Information Pack,Buy,Top up,Refund,Change expiry date,,Brisbane,
1841,Albany Creek News ,"Shop 13, 700 Albany Creek Road, Albany Creek, Queensland, Australia",-27.346343,152.969103,Brisbane,1,Standard retailer,,,,,,,,,,Brisbane,
2,Albion Station,"49 Albion Road, Albion, Brisbane North",-27.429438,153.040021,Brisbane North,5,Rail fare machine,,go card,,,Buy,Top up,Register,Refund,Change expiry date,Brisbane,
196,Albion Station,"49 Albion Road, Albion, Brisbane North",-27.429409,153.040021,Brisbane North,6,Rail ticket office,,,,,Top up,,,,,Brisbane,
534,Alderley Licensed Post Office,"19 Samford Road, Alderley, Queensland, Australia",-27.424959,153.000265,Brisbane North,1,Standard retailer,,go card,,,Buy,,,,,,
391,Alderley Station,"Railway Place, Alderley, Brisbane North",-27.423443,153.000987,Brisbane North,5,Rail fare machine,,go card,,,Buy,Top up,Register,Refund,Change expiry date,Brisbane,
197,Alderley Station,"Railway Place, Alderley, Brisbane North",-27.423433,153.000987,Brisbane North,6,Rail ticket office,,,,,Top up,,,,,Brisbane,
650,Alexpress Mart,"98-110 Alexandra Parade, Alexandra Headland, Sunshine Coast",-26.66553,153.105607,Sunshine Coast,1,Standard retailer,,go card,,,Buy,,,,,,
392,Altandi Station,"125 Mains Road, Sunnybank, Brisbane South",-27.58269,153.063397,Brisbane,5,Rail fare machine,,go card,,,Buy,Top up,Register,Refund,Change expiry date,Brisbane,
198,Altandi Station,"125 Mains Road, Sunnybank, Brisbane South",-27.582671,153.063376,Brisbane,6,Rail ticket office,,,,,Top up,,,,,Brisbane,
1006,Aquarius Backpackers,"44 Queen Street, Southport, Queensland, Australia",-27.973494,153.415458,,2,Preloaded reseller,,Gold Coast go explore card,,,Buy,,,,,Gold Coast,
726,Ascot News,"3/71 Racecourse Road, Ascot, Queensland, Australia",-27.436058,153.064916,Brisbane,1,Standard retailer,,go card,,,Buy,,,,,Brisbane,
199,Ascot Station,"McGill Avenue, Ascot (Brisbane City), Brisbane North",-27.429214,153.063238,Brisbane,5,Rail fare machine,,,,,Top up,,,,,Brisbane,
4,Ashgrove News,"Ashgrove Shopping Centre, 16 Ashgrove Avenue, Ashgrove, Brisbane North",-27.4447,152.994,Brisbane,1,Standard retailer,,go card,,,Buy,Top up,Change expiry date,,,Brisbane,
701,Ashmore City News,"Shop 10, Ashmore City Shopping Centre, Southport-Nerang and Currumburra Roads, Ashmore, Gold Coast",-27.977936,153.38047,Gold Coast,1,Standard retailer,,go card,,,Buy,,,,,,
1166,Ashmore Newsextra,"160 Cotlew Street, Ashmore, Queensland, Australia",-27.9871,153.383257,,2,Preloaded reseller,,go card,Gold Coast go explore card,,Buy,,,,,Gold Coast,
601,Aspley Bus Interchange,"Pick n Pay Hypermarket, Albany Creek Rd, Aspley, Brisbane North",-27.363956,153.012848,Brisbane North,4,Bus fare machine,,go card,,,Buy,Top up,,,,,
373,Auchenflower Station,"Auchenflower Terrace, Auchenflower , Brisbane West",-27.476547,152.996732,Brisbane West,5,Rail fare machine,,go card,,,Buy,Top up,Register,Refund,Change expiry date,Brisbane,
200,Auchenflower Station,"Auchenflower Terrace, Auchenflower, Brisbane West",-27.476557,152.996743,Brisbane West,6,Rail ticket office,,,,,Top up,,,,,Brisbane,
671,Australia Fair News,"Shop G112 Australia Fair Shopping Centre, Marine Parade, Southport, Gold Coast",-27.968746,153.415815,Gold Coast,1,Standard retailer,,go card,Gold Coast go explore card,,Buy,Top up,Register,Refund,Change expiry date,Gold Coast,
1671,Australia Post Office Coopers Plains,"896 Boundary Road, Coopers Plains, QLD, 4108, Australia",-27.569609,153.036245,Brisbane,2,Preloaded reseller,,,,,,,,,,Brisbane,
377,Bald Hills Station,"Cullimore Street, Bald Hills, Brisbane North",-27.321372,153.011644,Brisbane North,5,Rail fare machine,,go card,,,Buy,Top up,Register,Refund,Change expiry date,Brisbane,
201,Bald Hills Station,"Cullimore Street, Bald Hills, Brisbane North",-27.321362,153.011654,Brisbane North,6,Rail ticket office,,,,,Top up,,,,,Brisbane,
390,Banoon Station,"82 Breton Street, Sunnybank, Brisbane South",-27.576024,153.046161,Brisbane,5,Rail fare machine,,go card,,,Buy,Top up,Register,Refund,Change expiry date,Brisbane,
202,Banoon Station,"82 Breton Street, Sunnybank, Brisbane South",-27.576019,153.046177,Brisbane,6,Rail ticket office,,,,,Top up,,,,,Brisbane,
194,Banyo News and Officesmart,"276 St Vincents Road, Banyo, Brisbane North",-27.3749,153.077,Brisbane North,1,Standard retailer,,go card,,,Buy,,,,,,
203,Banyo Station,"268 St Vincents Road, Banyo, Brisbane North",-27.374986,153.077279,Brisbane North,5,Rail fare machine,,,,,Top up,,,,,Brisbane,
570,Banyo Station,"268 St Vincents Road, Banyo, Brisbane North",-27.374995,153.077268,Brisbane North,6,Rail ticket office,,go card,,,Buy,Top up,Register,Refund,Change expiry date,Brisbane,
1086,Baronnet Apartments,"12 Enderley Avenue, Surfers Paradise, Queensland, Australia",-28.009103,153.430639,,2,Preloaded reseller,,Gold Coast go explore card,,,Buy,,,,,Gold Coast,
696,Bay Island Transit Ticket Office,"Weinam Creek Marina, Banana St, Redland Bay, Eastern",-27.615168,153.308834,Moreton Bay,1,Standard retailer,,go card,SEEQ card,,Buy,Top up,Refund,Change expiry date,,Moreton Bay,
1011,Bay Lodge Apartments,"35 Palm Avenue, Surfers Paradise, Queensland, Australia",-27.995222,153.426284,,2,Preloaded reseller,,Gold Coast go explore card,,,Buy,,,,,Gold Coast,
816,Beaudesert News,"97 Brisbane Street, Beaudesert, Queensland, Australia",-27.98768,152.995942,Brisbane,1,Standard retailer,,go card,,,Buy,,,,,Brisbane,
204,Beenleigh Station,"Alamein Street, Beenleigh, ",-27.717115,153.204236,Logan,5,Rail fare machine,,,,,Top up,,,,,Logan,
9,Beenleigh Station,"Alamein Street, Beenleigh, Southern",-27.717125,153.204215,Logan,6,Rail ticket office,,go card,,,Buy,Top up,Register,Refund,Change expiry date,Logan,
205,Beerburrum Station,"Church Street, Beerburrum, Northern",-26.959839,152.959021,Sunshine Coast,6,Rail ticket office,,,,,Top up,,,,,Sunshine Coast,
408,Beerwah Station,"Beerwah Parade, Beerwah, Northern",-26.857889,152.958349,Sunshine Coast,5,Rail fare machine,,go card,,,Buy,Top up,Register,Refund,Change expiry date,Sunshine Coast,
206,Beerwah Station,"Beerwah Parade, Beerwah, Northern",-26.857894,152.958386,Sunshine Coast,6,Rail ticket office,,,,,Top up,,,,,Sunshine Coast,
409,Bethania Station,"Station Road, Bethania, Southern",-27.688452,153.158762,Logan,5,Rail fare machine,,go card,,,Buy,Top up,Register,Refund,Change expiry date,Logan,
207,Bethania Station,"Station Road, Bethania, Southern",-27.688471,153.158762,Logan,6,Rail ticket office,,,,,Top up,,,,,Logan,
208,Bindha Station,"Park Street, Banyo, Brisbane North",-27.382901,153.07245,Brisbane,5,Rail fare machine,,,,,Top up,,,,,Brisbane,
396,Biota Street News,"155 Biota Street, Inala, Brisbane West",-27.5874,152.973,Brisbane West,1,Standard retailer,,go card,,,Buy,,,,,,
410,Birkdale station,"Napier Street, Birkdale, Eastern",-27.493943,153.218472,Eastern,5,Rail fare machine,,go card,,,Buy,Top up,Register,Refund,Change expiry date,Redlands,
209,Birkdale Station,"Napier Street, Birkdale, Eastern",-27.493933,153.218483,Redlands,6,Rail ticket office,,,,,Top up,,,,,Redlands,
193,Bli Bli News,"Shop 5, River Markets, David Low Way, Bli Bli, Sunshine Coast",-26.6221,153.044,Sunshine Coast,1,Standard retailer,,go card,,,Buy,,,,,,
67,Bloomfield Street News,"115 - 117 Bloomfield Street, Cleveland, Eastern",-27.5275,153.267,Moreton Bay,1,Standard retailer,,go card,SEEQ card,Visitor Information Pack,Buy,Top up,Register,Refund,Change expiry date,Moreton Bay,
347,Blunder Road Newsagency,"146 Blunder Road, Oxley, Queensland, Australia",-27.575481,152.983028,Brisbane South,1,Standard retailer,,go card,,,Buy,,,,,,
593,Boggo Road Busway,"Quarry Street, Woolloongabba, Brisbane South",-27.492742,153.030513,Brisbane South,1,Standard retailer,,go card,,,Buy,Top up,,,,,
501,Bond University Bookshop,"Shop 5-6, Commercial Centre, Bond University, Robina, Gold Coast",-28.0465,153.409,Gold Coast,1,Standard retailer,,go card,,,Buy,,,,,,
340,Boondall News and Casket,"Sues Korner, 2128 Sandgate Road, Boondall, Brisbane North",-27.3527,153.06,Brisbane North,1,Standard retailer,,go card,,,Buy,,,,,,
210,Boondall Station,"Aberdeen Parade, Boondall, Brisbane North",-27.346405,153.067622,Brisbane North,5,Rail fare machine,,,,,Top up,,,,,Brisbane,
411,Boondall station,"Aberdeen Parade, Boondall, Brisbane North",-27.346377,153.067633,Brisbane North,6,Rail ticket office,,go card,,,Buy,Top up,Register,Refund,Change expiry date,Brisbane,
211,Booval Station,"South Station Road, Booval, Western",-27.609357,152.789791,Western,5,Rail fare machine,,,,,Top up,,,,,Ipswich,
11,Booval Station,"South Station Road, Booval, Western",-27.609357,152.789796,Western,6,Rail ticket office,,go card,,,Buy,Top up,Register,Refund,Change expiry date,Ipswich,
13,Bowen Hills Station,"Abbotsford Road, Bowen Hills, Brisbane Central",-27.445181,153.03756,Brisbane Central,5,Rail fare machine,,go card,,,Buy,Top up,Register,Refund,Change expiry date,Brisbane,
212,Bowen Hills Station,"Abbotsford Road, Bowen Hills, Brisbane Central",-27.445162,153.037549,Brisbane Central,6,Rail ticket office,,,,,Top up,,,,,Brisbane,
525,BP Cooroy Supermart,"28 Elm Street, Cooroy, Sunshine Coast",-26.4184,152.912,Sunshine Coast,1,Standard retailer,,go card,,,Buy,,,,,Sunshine Coast,
615,BP Yandina Food Stop,"24 Farrell Street, Yandina, Sunshine Coast",-26.559987,152.956586,Sunshine Coast,1,Standard retailer,,go card,,,Buy,,,,,,
17,Bray Park Station,"Railway Avenue, Bray Park (Moreton Bay Regional), Northern",-27.299367,152.986032,Moreton Bay,5,Rail fare machine,,go card,,,Buy,Top up,Register,Refund,Change expiry date,Moreton Bay,
213,Bray Park Station,"Railway Avenue, Bray Park (Moreton Bay Regional), Northern",-27.299357,152.986145,Moreton Bay,6,Rail ticket office,,,,,Top up,,,,,Moreton Bay,
1091,Breakfree Acapulco,"2 Thornton Street, Surfers Paradise, Queensland, Australia",-28.010543,153.431904,,2,Preloaded reseller,,Gold Coast go explore card,,,Change expiry date,,,,,Gold Coast,
1096,Breakfree Beachpoint,"Staghorn Avenue and The Esplanade, Surfers Paradise, Queensland, Australia",-27.995515,153.430342,,2,Preloaded reseller,,Gold Coast go explore card,,,Buy,,,,,Gold Coast,
1101,Breakfree Cosmpolitan,"3142 Surfers Paradise Boulevard, Surfers Paradise, Queensland, Australia",-28.003255,153.428659,,2,Preloaded reseller,,Gold Coast go explore card,,,Buy,,,,,Gold Coast,
1106,Breakfree Diamond Beach,"10-16 Alexandra Avenue, Mermaid Beach, Queensland, Australia",-28.036277,153.434403,,2,Preloaded reseller,,Gold Coast go explore card,,,Buy,,,,,Gold Coast,
1111,Breakfree Longbeach,"28 Northcliffe Terrace, Surfers Paradise, Queensland, Australia",-28.00749,153.430861,,2,Preloaded reseller,,Gold Coast go explore card,,,Buy,,,,,Gold Coast,
1016,Breakfree Morrocan,"14 View Avenue, Surfers Paradise, Queensland, Australia",-27.997806,153.429731,,2,Preloaded reseller,,Gold Coast go explore card,,,Buy,,,,,Gold Coast,
604,Bribie Island Park n Ride,"Cnr Village and Victory Road, Bongaree, Bribie Island, Northern",-27.06552,153.158635,Northern,4,Bus fare machine,,go card,,,Buy,Top up,,,,,
677,Brisbane Convenience Centre,"183 Ann Street, Brisbane, Brisbane Central",-27.467113,153.025228,Brisbane Central,1,Standard retailer,,go card,,,Buy,,,,,,
559,Broadbeach News and Casket,"2703 Gold Coast Highway, Broadbeach, Gold Coast",-28.029247,153.430453,Gold Coast,1,Standard retailer,,go card,Gold Coast go explore card,,Buy,,,,,Gold Coast,
941,Broadbeach North Tram Station,"Corner Gold Coast Highway and Queensland Avenue, Broadbeach, Queensland, Australia",-28.028599,153.429787,,5,Rail fare machine,,go card,,,Buy,Top up,,,,Gold Coast,
1541,Broadbeach Oasis News ,"Victoria Avenue, Broadbeach, Queensland, Australia",-28.029567,153.432791,,2,Preloaded reseller,,,,,,,,,,Gold Coast,
946,Broadbeach South Tram Station,"Corner Gold Coast Highway and Hooker Boulevard, Broadbeach, Queensland, Australia",-28.035763,153.431112,,5,Rail fare machine,,go card,,,Buy,Top up,,,,Gold Coast,
539,Broadcast News,"Shop 1, 39 Sherwood Road, Toowong, Brisbane West",-27.4854,152.992,Brisbane,1,Standard retailer,,go card,,,Buy,Top up,Change expiry date,,,Brisbane,
951,Broadwater Parklands Tram Station,"Corner Queen Street and Ada Bell Way, Southport, Queensland, Australia",-27.97349,153.418964,,5,Rail fare machine,,go card,,,Buy,,,,,Gold Coast,
602,Brookside Bus Interchange,"Brookside Shopping Centre, Mitchelton, Brisbane North",-27.410027,152.978784,Brisbane North,1,Standard retailer,,go card,,,Buy,Top up,,,,,
1786,Buderim Foodworks,"60 Burnett Street, Buderim, Queensland, Australia",-26.686402,153.049497,Sunshine Coast,2,Preloaded reseller,Effective from 11 March 2016 ,,,,,,,,,Sunshine Coast,
414,Bundamba Station,"Mining Street, Bundamba, Western",-27.6075,152.804571,Western,5,Rail fare machine,,go card,,,Buy,Top up,Register,Refund,Change expiry date,Ipswich,
215,Bundamba Station,"Mining Street, Bundamba, Western",-27.607519,152.804549,Ipswich,6,Rail ticket office,,,,,Top up,,,,,Ipswich,
481,Buranda Busway Station,"OKeefe Street, Buranda, Brisbane South",-27.497029,153.039182,Brisbane South,4,Bus fare machine,,go card,,,Buy,Top up,,,,Brisbane,
216,Buranda Station,"Gillingham Street, Buranda, Brisbane South",-27.496571,153.040397,Brisbane,5,Rail fare machine,,,,,Top up,,,,,Brisbane,
415,Buranda Station,"Gillingham Street, Buranda, Brisbane South",-27.496576,153.040386,Brisbane,6,Rail ticket office,,go card,,,Buy,Top up,Register,Refund,Change expiry date,Brisbane,
623,Burpengary News,"Shop 22 Burpengary Plaza, Station Road, Burpengary, Northern",-27.154338,152.97469,Northern,1,Standard retailer,,go card,,,Buy,,,,,,
59,Burpengary Station,"Burpengary Road, Burpengary, Northern",-27.163078,152.957113,Moreton Bay,5,Rail fare machine,,go card,,,Buy,Top up,Register,Refund,Change expiry date,Moreton Bay,
217,Burpengary Station,"Burpengary Road, Burpengary, Northern",-27.163063,152.957107,Moreton Bay,6,Rail ticket office,,,,,Top up,,,,,Moreton Bay,
645,Burstall Avenue News,"Belmont Shopping Plaza, Cnr Burstall Ave and Belmont Road, Belmont, Brisbane East",-27.484423,153.126052,Brisbane,1,Standard retailer,,go card,,,Buy,Top up,Change expiry date,,,Brisbane,
60,Caboolture Station,"Matthew Terrace, Caboolture, Northern",-27.083347,152.954011,Moreton Bay,5,Rail fare machine,,go card,,,Top up,,,,,Moreton Bay,
218,Caboolture Station ,"Matthew Terrace, Caboolture, Northern",-27.083338,152.954021,Moreton Bay,6,Rail ticket office,,go card,,,Buy,Top up,Register,Refund,Change expiry date,Moreton Bay,
655,Caloundra Newsagency,"72 Bulcock Street, Caloundra, Sunshine Coast",-26.80477,153.131188,Sunshine Coast,1,Standard retailer,,go card,SEEQ card,Visitor Information Pack,Buy,Top up,Register,Refund,Change expiry date,Sunshine Coast,
517,Camp Hill Newsagency,"569 Old Cleveland Road, Camp Hill, Brisbane East",-27.493,153.075,Brisbane,1,Standard retailer,,go card,,,Buy,,,,,Brisbane,
1531,Campus Book Shop,"Building G.40, Griffith University Gold Coast Campus, Parklands Drive, Southport, Queensland, Australia",-27.962918,153.380708,,2,Preloaded reseller,,,,,,,,,,Gold Coast,
675,Campus Bookshop,"The Link Building (G07) Griffith University Gold Coast Campus , Southport, Gold Coast",-27.962054,153.379764,Gold Coast,1,Standard retailer,,go card,,,Buy,,,,,,
156,Campus News,"Staffhouse Road, Union Complex, University Of Queensland (building 4), St Lucia, Brisbane West",-27.4982,153.014,Brisbane,1,Standard retailer,,go card,SEEQ card,Visitor Information Pack,Buy,Top up,Register,Refund,Change expiry date,Brisbane,
595,Cannon Hill Bus Interchange,"Cannon Hill Shopping Centre, Creek Road, Cannon Hill, Brisbane East",-27.470755,153.096887,Brisbane East,1,Standard retailer,,go card,,,Buy,Top up,,,,,
382,Cannon Hill Station,"60 Barracks Road, Cannon Hill, Brisbane East",-27.465376,153.088099,Brisbane East,5,Rail fare machine,,go card,,,Buy,Top up,Register,Refund,Change expiry date,Brisbane,
219,Cannon Hill Station,"60 Barracks Road, Cannon Hill, Brisbane East",-27.465367,153.088115,Brisbane,6,Rail ticket office,,,,,Top up,,,,,Brisbane,
351,Carina Newsagency,"836 Old Cleveland Rd, Carina, Brisbane East",-27.4955,153.089,Brisbane East,1,Standard retailer,,go card,,,Buy,Top up,Change expiry date,,,Brisbane,
594,Carindale Bus Interchange,"Westfield Carindale Shopping Centre, Carindale, Brisbane East",-27.503369,153.102971,Brisbane East,1,Standard retailer,,go card,,,Buy,Top up,,,,,
364,Carseldine Station,"Beams Road, Carseldine, Brisbane North",-27.348448,153.029161,Brisbane North,5,Rail fare machine,,go card,,,Buy,Top up,Register,Refund,Change expiry date,Brisbane,
220,Carseldine Station,"Beams Road, Carseldine, Brisbane North",-27.348448,153.029145,Brisbane North,6,Rail ticket office,,,,,Top up,,,,,Brisbane,
741,Casino News,"131 George Street, Brisbane, Queensland, Australia",-27.472178,153.025012,Brisbane,1,Standard retailer,,go card,,,Buy,Top up,Change expiry date,,,Brisbane,
1241,Cavill Avenue Tram Station,"Corner Surfers Paradise Boulevard and Cavill Avenue, Surfers Paradise, Queensland, Australia",-28.001657,153.428313,,5,Rail fare machine,,go card,,,Buy,Top up,,,,Gold Coast,
32,Central station,"Ann Street, Brisbane , Brisbane Central",-27.465905,153.025936,Brisbane Central,5,Rail fare machine,,go card,SEEQ card,,Buy,Top up,Register,Refund,Change expiry date,Brisbane,
221,Central station,"Cnr Edward and Ann Street, Brisbane , Brisbane Central",-27.465905,153.025936,Brisbane Central,6,Rail ticket office,,,,,Top up,,,,,Brisbane,
1021,Centrepoint Apartments,"67 Ferny Avenue, Surfers Paradise, Queensland, Australia",-27.998162,153.427801,,2,Preloaded reseller,,Gold Coast go explore card,,,Buy,,,,,Gold Coast,
637,Chapel Hill News,"8/620 Moggill Rd, Chapel Hill, Brisbane West",-27.505594,152.960821,Brisbane West,1,Standard retailer,,go card,,,Buy,,,,,,
352,Chatswood Hills News,"Shop 34 Chatswood Central, Chatswood Rd, Springwood, Southern ",-27.6334,153.139,Southern ,1,Standard retailer,,go card,,,Buy,,,,,,
416,Chelmer station,"140 Honour Avenue, Chelmer, Brisbane South",-27.511648,152.972882,Brisbane,5,Rail fare machine,,go card,,,Buy,Top up,Register,Refund,Change expiry date,Brisbane,
222,Chelmer station,"140 Honour Avenue, Chelmer, Brisbane South",-27.511648,152.972871,Brisbane South,6,Rail ticket office,,,,,Top up,,,,,Brisbane,
485,Chermside Bus Interchange,"corner Gympie and Hamilton Roads, Chermside, Brisbane North",-27.3854,153.031,Brisbane North,4,Bus fare machine,,go card,,,Buy,Top up,,,,,
680,Chevron 7 Day Express Food Store,"46 Thomas Drive, Surfers Paradise, Gold Coast",-27.998069,153.419628,Gold Coast,2,Preloaded reseller,,go card,Gold Coast go explore card,,Buy,,,,,Gold Coast,
1116,Chevron Palms,"48 - 54 Stanhill Drive, Surfers Paradise, Queensland, Australia",-27.997265,153.422847,,2,Preloaded reseller,,Gold Coast go explore card,,,Buy,,,,,Gold Coast,
1026,Chevron Towers Tour Desk,"23 Ferny Avenue, Surfers Paradise, Queensland, Australia",-27.999546,153.427723,,2,Preloaded reseller,,Gold Coast go explore card,,,Buy,,,,,Gold Coast,
344,Chris Supa IGA,"881 Old Cleveland Road, Carina, Brisbane East",-27.4963,153.095,Brisbane East,1,Standard retailer,,go card,,,Buy,,,,,,
629,Christines Corner Newsagency,"5/221 Christine Avenue, Varsity Lakes, Gold Coast",-28.085385,153.42483,Gold Coast,1,Standard retailer,,go card,,,Buy,,,,,,
33,City Mall News,"Queen Street Kiosk, Brisbane , Brisbane Central",-27.4685,153.027,Brisbane,1,Standard retailer,,go card,SEEQ card,Visitor Information Pack,Buy,Top up,Register,Refund,Change expiry date,Brisbane,
34,City News,"10 Eagle Street, Brisbane , Brisbane Central",-27.4694,153.03,Brisbane,1,Standard retailer,,go card,,,Buy,Top up,Change expiry date,,,Brisbane,
487,Clarks Logan City Bus ticket kiosk Loganholme,"Logan Hyperdome, corner Pacific Highway and Bryants Road, Loganholme, Southern",-27.6606,153.173,Southern,1,Standard retailer,,go card,,,Buy,,,,,,
488,Clarks Logan City Bus ticket kiosk Springwood,"Springwood bus station, Springwood, Southern",-27.6144,153.126,Southern,1,Standard retailer,,go card,,,Buy,,,,,,
223,Clayfield station,"761 Sandgate Road, Clayfield, Brisbane North",-27.4175,153.057,Brisbane North,5,Rail fare machine,,,,,Top up,,,,,Brisbane,
224,Cleveland station,"Shore Street, Cleveland, Eastern",-27.524219,153.265667,Redlands,5,Rail fare machine,,,,,Top up,,,,,Redlands,
68,Cleveland station,"Shore Street, Cleveland, Eastern",-27.52421,153.265657,Redlands,6,Rail ticket office,,go card,,,Buy,Top up,Register,Refund,Change expiry date,Redlands,
576,Clock Corner Convenience Store & Take-Away,"13/521 Beams Rd, Carseldine, Brisbane North",-27.3482,153.028,Brisbane North,1,Standard retailer,,go card,,,Buy,,,,,,
609,Co-op Bookshop (USC),"University of Sunshine Coast, Sippy Downs Drive, Sippy Downs, Queensland, Australia",-26.718071,153.062414,Sunshine Coast,1,Standard retailer,,go card,SEEQ card,,Buy,Top up,Register,Refund,Change expiry date,Sunshine Coast,
630,Co-Op Bookshop ACU,"Aust Catholic University, Nudgee Rd, Banyo, Brisbane North",-27.379966,153.148047,Brisbane North,1,Standard retailer,,go card,,,Buy,,,,,,
631,Co-Op Bookshop GU Logan,"Griffith Uni Logan Campus, University Drive, Meadowbrook, Southern",-27.664398,153.148047,Southern,1,Standard retailer,,go card,,,Buy,,,,,,
632,Co-Op Bookshop GU Mt Gravatt,"Griffith Uni Mt Gravatt Campus, Messines Ridge Rd, Mount Gravatt, Brisbane South",-27.543289,153.052821,Brisbane South,1,Standard retailer,,go card,,,Buy,,,,,,
633,Co-Op Bookshop QCM ,"Qld Conservatorium of Music, 140 Grey Street, South Brisbane, Brisbane South",-27.477569,153.021132,Brisbane South,1,Standard retailer,,go card,,,Buy,,,,,,
638,Co-op Bookshop UQ Gatton,"Building 8123, Morrison Hall, Inner Ring Road, Gatton, Western",-27.555737,152.337285,Western,1,Standard retailer,,go card,,,Buy,,,,,,
639,Co-op Bookshop UQ Ipswich,"Building 12, Room 108, Salisbury Road, Ipswich, Western",-27.628126,152.756307,Western,1,Standard retailer,,go card,,,Buy,,,,,,
353,Collingwood Park News,"Shop 1, Redbank Plaza Shopping Centre, Collingwood Drive, Redbank, Western",-27.6059,152.868,Western,1,Standard retailer,,go card,,,Buy,,,,,,
1471,Colonial Village 4 Espresso,"351 Beams Road, Taigum, Queensland, Australia",-27.349545,153.041259,,2,Preloaded reseller,,,,,,,,,,Brisbane,
556,Commercial Road News,"52 Commercial Road, Fortitude Valley, Brisbane Central",-27.4533,153.044,Brisbane Central,1,Standard retailer,,go card,,,Buy,,,,,,
225,Coomera station,"Railway Reserve 11 Foxwell Road, Coomera, Gold Coast",-27.8535,153.318,Gold Coast,5,Rail fare machine,,,,,Top up,,,,,Gold Coast,
385,Coomera station,"Railway Reserve 11 Foxwell Road, Coomera, Gold Coast",-27.8535,153.318,Gold Coast,6,Rail ticket office,,go card,,,Buy,Top up,Register,Refund,Change expiry date,Gold Coast,
226,Coopers Plains station,"Henley Street, Coopers Plains, Brisbane South",-27.5684,153.036,Brisbane,5,Rail fare machine,,,,,Top up,,,,,Brisbane,
417,Coopers Plains station,"Henley Street, Coopers Plains, Brisbane South",-27.5684,153.036,Brisbane,6,Rail ticket office,,go card,,,Buy,Top up,Register,Refund,Change expiry date,Brisbane,
227,Cooroy  station,"Elm Street, Cooroy, Sunshine Coast",-26.4187,152.911,Sunshine Coast,5,Rail fare machine,,,,,Top up,,,,,Sunshine Coast,
418,Cooroy station,"Elm Street, Cooroy, Sunshine Coast",-26.4187,152.911,Sunshine Coast,6,Rail ticket office,,go card,,,Buy,Top up,Register,Refund,Change expiry date,Sunshine Coast,
586,Coorparoo News,"Shop 6, Coorparoo Convenience Centre, 208 Old Cleveland Road, Coorparoo, Brisbane East",-27.497168,153.054055,Brisbane,1,Standard retailer,,go card,,,Buy,Top up,Change expiry date,,,Brisbane,
366,Coorparoo station ,"Cavendish Road, Coorparoo, Brisbane East",-27.4897,153.055,Brisbane East,5,Rail fare machine,,go card,,,Buy,Top up,Register,Refund,Change expiry date,Brisbane,
228,Coorparoo station,"Cavendish Road, Coorparoo, Brisbane East",-27.4897,153.055,Brisbane,6,Rail ticket office,,,,,Top up,,,,,Brisbane,
73,Corinda station,"Watt Street, corner Ruthven Street, Corinda, Brisbane South",-27.5396,152.98,Brisbane,5,Rail fare machine,,go card,,,Buy,Top up,Register,Refund,Change expiry date,Brisbane,
229,Corinda station,"Cnr Watt &amp; Ruthven Street, Corinda, Brisbane South",-27.5396,152.98,Brisbane,5,Rail fare machine,,,,,Top up,,,,,Brisbane,
116,Cotton Tree News,"9 King Street, Maroochydore, Sunshine Coast",-26.6547,153.101,Brisbane,1,Standard retailer,,go card,,,Buy,Top up,Change expiry date,,,Brisbane,
1121,Crown Towers Resort,"5-19 Palm Avenue, Surfers Paradise, Queensland, Australia",-27.995758,153.427978,,2,Preloaded reseller,,Gold Coast go explore card,,,Buy,,,,,Gold Coast,
480,Cultural Centre busway station,"corner of Grey and Melbourne Streets, South Brisbane, Brisbane Central",-27.4732,153.019,Brisbane Central,1,Standard retailer,,go card,,,Buy,Top up,,,,,
617,Currimundi News,"Cnr Nicklin Way and Bellara Drive, Currimundi, Sunshine Coast",-26.773831,153.124299,Sunshine Coast,1,Standard retailer,,go card,,,Buy,,,,,,
756,Currumbin Creek Newsagency,"52 Currumbin Creek Road, Currumbin Waters, Queensland, Australia",-28.14411,153.472662,Gold Coast,1,Standard retailer,,go card,,,Buy,,,,,,
956,Cypress Avenue tram station,"Corner Surfers Paradise Boulevard and Cypress Avenue, Surfers Paradise, Queensland, Australia",-27.996461,153.427522,,1,Standard retailer,,go card,,,Buy,Top up,,,,Gold Coast,
621,Daisy Hill News,"Shop 7, Cnr Daisy Hill Rd and Cupania Street, Daisy Hill , Southern",-27.642944,153.153712,Southern,1,Standard retailer,,go card,,,Buy,,,,,,
230,Dakabin station,"Narangba Road, Dakabin, Northern",-27.2285,152.975,Brisbane,5,Rail fare machine,,,,,Top up,,,,,Brisbane,
231,Darra station,"Darra Station Road, Darra, Brisbane West",-27.5659,152.952,Brisbane,5,Rail fare machine,,,,,Top up,,,,,Brisbane,
74,Darra station,"Darra Station Road, Darra, Brisbane West",-27.5659,152.952,Brisbane,6,Rail ticket office,,go card,,,Buy,Top up,Register,Refund,Change expiry date,Brisbane,
232,Deagon station,"Adams Street, Deagon, Brisbane North",-27.3273,153.063,Brisbane,5,Rail fare machine,,,,,Top up,,,,,Brisbane,
419,Deagon station,"Adams Street, Deagon, Brisbane North",-27.3273,153.063,Brisbane,6,Rail ticket office,,go card,,,Buy,Top up,Register,Refund,Change expiry date,Brisbane,
233,Dinmore station,"Mason Street, Dinmore, Western",-27.5964,152.833,Brisbane,5,Rail fare machine,,,,,Top up,,,,,Brisbane,
420,Dinmore station,"Mason Street, Dinmore, Western",-27.5964,152.833,Brisbane,6,Rail ticket office,,go card,,,Buy,Top up,Register,Refund,Change expiry date,Brisbane,
616,Dockside Convenience Store,"Shop 5, 35 Ferry Street, Kangaroo Point, Brisbane East",-27.472558,153.038964,Brisbane East,1,Standard retailer,,go card,,,Buy,,,,,,
234,Domestic Terminal station,"Airport Drive, Airport (Brisbane), Brisbane East",-27.3852,153.119,Brisbane,5,Rail fare machine,,,,,Top up,,,,,Brisbane,
235,Doomben station,"Lamington Avenue, Doomben, Brisbane North",-27.4314,153.075,Brisbane,5,Rail fare machine,,,,,Top up,,,,,Brisbane,
421,Doomben station,"Lamington Avenue, Doomben, Brisbane North",-27.4314,153.075,Brisbane,6,Rail ticket office,,go card,,,Buy,Top up,Register,Refund,Change expiry date,Brisbane,
236,Dutton Park station,"Railway Terrace, Dutton Park, Brisbane South",-27.4998,153.029,Brisbane,5,Rail fare machine,,,,,Top up,,,,,Brisbane,
359,Dutton Park station,"Railway Terrace, Dutton Park, Brisbane South",-27.4998,153.029,Brisbane,6,Rail ticket office,,go card,,,Buy,Top up,Register,Refund,Change expiry date,Brisbane,
702,Eagle Junction News,"272 Junction Road, Eagle Junction, Brisbane North",-27.415092,153.050647,Brisbane North,1,Standard retailer,,go card,,,Buy,,,,,,
237,Eagle Junction station,"Junction Road, Eagle Junction, Brisbane North",-27.4151,153.05,Brisbane,5,Rail fare machine,,,,,Top up,,,,,Brisbane,
78,Eagle Junction station,"Junction Road, Eagle Junction, Brisbane North",-27.4151,153.05,Brisbane,6,Rail ticket office,,go card,,,Buy,Top up,Register,Refund,Change expiry date,Brisbane,
35,Eagle Street News,"Ground Floor, 70 Eagle Street, Brisbane , Brisbane Central",-27.4671,153.03,Brisbane,1,Standard retailer,,go card,SEEQ card,Visitor Information Pack,Buy,Top up,Register,Refund,Change expiry date,Brisbane,
1631,Earls Court Serviced Apartments,"131 Nerang Street, Southport, Queensland, Australia",-27.971204,153.407014,Gold Coast,2,Preloaded reseller,,,,,,,,,,Gold Coast,
238,East Ipswich station,"Merton Street, East Ipswich, Western",-27.61,152.775,Brisbane,5,Rail fare machine,,,,,Top up,,,,,Brisbane,
389,East Ipswich station,"Merton Street, East Ipswich, Western",-27.61,152.775,Brisbane,6,Rail ticket office,,go card,,,Buy,Top up,Register,Refund,Change expiry date,Brisbane,
239,Ebbw Vale station,"Brisbane Road, Ebbw Vale, Western",-27.6033,152.822,Brisbane,5,Rail fare machine,,,,,Top up,,,,,Brisbane,
422,Ebbw Vale station,"Brisbane Road, Ebbw Vale, Western",-27.6033,152.822,Brisbane,6,Rail ticket office,,go card,,,Buy,Top up,Register,Refund,Change expiry date,Brisbane,
240,Edens Landing station,"Eddy Avenue, Edens Landing, Southern ",-27.6982,153.171,Logan,5,Rail fare machine,,,,,Top up,,,,,Logan,
589,Eight Mile Plains Busway,"Eight Mile Plains Busway Station, Eight Mile Plains, Brisbane South",-27.57848,153.101739,Brisbane South,1,Standard retailer,,go card,,,Buy,Top up,,,,,
1846,Elimbah Newsagency,"8/870 Beerburrum Rd, Elimbah, Queensland, Australia",-27.007239,152.944354,Sunshine Coast,2,Preloaded reseller,,,,,,,,,,Sunshine Coast,
241,Elimbah station,"English Street, Elimbah, Northern",-27.0113,152.946,Sunshine Coast,5,Rail fare machine,,,,,Top up,,,,,Sunshine Coast,
668,Enoggera Newsagency,"Shop 2B, 318 Wardell Street, Enoggera, Brisbane North",-27.422652,152.990315,Brisbane North,1,Standard retailer,,go card,,,Buy,,,,,,
242,Enoggera station,"Glenalva Terrace, Enoggera, Brisbane North",-27.4203,152.992,Brisbane,5,Rail fare machine,,,,,Top up,,,,,Brisbane,
423,Enoggera station,"Glenalva Terrace, Enoggera, Brisbane North",-27.4203,152.992,Brisbane,6,Rail ticket office,,go card,,,Buy,Top up,Register,Refund,Change expiry date,Brisbane,
243,Eudlo station,"Rosebed Street, Eudlo, Sunshine Coast",-26.7259,152.957,Sunshine Coast,5,Rail fare machine,,,,,Top up,,,,,Sunshine Coast,
613,Eumundi Village Pharmacy,"1 / 2 - 6 Ethridge Street, Eumundi, Sunshine Coast",-26.475572,152.950648,Sunshine Coast,1,Standard retailer,,go card,,,Buy,,,,,,
36,Exchange Casket Agency,"360 Queen Street, Brisbane , Brisbane Central",-27.4664,153.029,Brisbane,1,Standard retailer,,go card,Visitor Information Pack,,Buy,Top up,Change expiry date,,,Brisbane,
1866,EzyMart King George Square Pty Ltd,"Level 1 King George Square Busway, Adelaide Street, Brisbane, Queensland, Australia",-27.468991,153.024216,Brisbane,1,Standard retailer,,,,,,,,,,Brisbane,
1731,Fairfield Station ,"Mildmay Street, Fairfield, Queensland, Australia",-27.507597,153.028337,Brisbane,5,Rail fare machine,,,,,,,,,,Brisbane,
424,Fairfield station,"Mildmay Street, Fairfield, Brisbane South",-27.5095,153.028,Brisbane,6,Rail ticket office,,go card,,,Buy,Top up,Register,Refund,Change expiry date,Brisbane,
244,Farifield station,"Midway Street, Fairfield, Brisbane South",-27.5095,153.028,Brisbane South,2,Preloaded reseller,,,,,Top up,,,,,,
245,Ferny Grove station,"Conavalla Street, Ferny Grove, Brisbane North",-27.4013,152.935,Brisbane,5,Rail fare machine,,,,,Top up,,,,,Brisbane,
82,Ferny Grove station,"Conavalla Street, Ferny Grove, Brisbane North",-27.4013,152.935,Brisbane,6,Rail ticket office,,go card,,,Buy,Top up,Register,Refund,Change expiry date,Brisbane,
464,Ferny Hills News & Casket,"Shop 11, 126 Ferny Way, Ferny Hills, Brisbane North",-27.4003,152.939,Brisbane North,1,Standard retailer,,go card,,,Buy,,,,,,
931,Florida Gardens tram station,"Corner Gold Coast Highway and Monaco Street, Surfers Paradise, Queensland, Australia",-28.017705,153.429349,,1,Standard retailer,,go card,,,Buy,Top up,,,,Gold Coast,
663,Foodworks Heathwood,"137 Parkwood Drive, Heathwood, Brisbane West",-27.637003,152.986997,Brisbane West,1,Standard retailer,,go card,,,Buy,,,,,,
1181,Foodworks Jindalee,"Shop 1, 66 Curragundi Road, Jindalee, Queensland, Australia",-27.53513,152.935947,,2,Preloaded reseller,,go card,,,Buy,,,,,Brisbane,
622,Foodworks Salisbury,"Shop 4 / 660 Toohey Road, Salisbury, Brisbane South",-27.545804,153.039488,Brisbane South,1,Standard retailer,,go card,,,Buy,,,,,,
1536,Foodworks Wishart,"590 Mount Gravatt-Capalaba Road, Wishart, Queensland, 4122, Australia",-27.549068,153.106621,Brisbane,1,Standard retailer,,,,,,,,,,Brisbane,
83,Forest Lake Village News,"Forest Lake Village Shopping Centre, Forest Lake Boulevard, Forest Lake, Brisbane West",-27.6255,152.968,Brisbane,1,Standard retailer,,go card,,,Buy,Top up,Change expiry date,,,Brisbane,
85,Fortitude Valley station,"Brunswick Street, Fortitude Valley, Brisbane Central",-27.4567,153.033,Brisbane Central,5,Rail fare machine,,go card,SEEQ card,,Buy,Top up,Register,Refund,Change expiry date,Brisbane,
214,Fortitude Valley station,"Brunswick Street, Fortitude Valley, Brisbane Central",-27.4567,153.033,Brisbane Central,6,Rail ticket office,,,,,Top up,,,,,Brisbane,
184,Four Square ,"18 Cracknell Road, Annerley, Brisbane South",-27.5184,153.03,Brisbane South,1,Standard retailer,,go card,,,Buy,,,,,,
581,Friendly Grocer Broadbeach,"Shop 10, Belair Retail Centre, Gold Coast Highway,Broadbeach, Broadbeach, Gold Coast",-28.035828,153.431953,Gold Coast,2,Preloaded reseller,,go card,Gold Coast go explore card,,Buy,,,,,Gold Coast,
1696,Friendly Grocer Ormiston,"Shop 1, 116-118 Wellington Street, Ormiston, Queensland, Australia",-27.511524,153.256093,Brisbane,2,Preloaded reseller,,,,,,,,,,Brisbane,
246,Fruitgrove station,"Beenleigh Road, Runcorn, Brisbane South",-27.5983,153.08,Brisbane,5,Rail fare machine,,,,,Top up,,,,,Brisbane,
425,Fruitgrove station,"Beenleigh Road, Runcorn, Brisbane South",-27.5983,153.08,Brisbane,6,Rail ticket office,,go card,,,Buy,Top up,Register,Refund,Change expiry date,Brisbane,
247,Gailes station,"Wilruna Street, Gailes, Western",-27.6018,152.919,Brisbane,5,Rail fare machine,,,,,Top up,,,,,Brisbane,
387,Gailes station,"Wilruna Street, Gailes, Western",-27.6018,152.919,Brisbane,6,Rail ticket office,,go card,,,Buy,Top up,Register,Refund,Change expiry date,Brisbane,
492,Garden City bus interchange,"South East Freeway near Garden City Shopping Centre (access via current bus interchange), Upper Mount Gravatt, Brisbane South",-27.5631,153.081,Brisbane South,4,Bus fare machine,,go card,,,Buy,Top up,,,,,
1651,Gasworks News,"The Gasworks, Skyring Terrace, Newstead, Queensland, Australia",-27.450247,153.044459,Brisbane,1,Standard retailer,,,,,,,,,,Brisbane,
577,Gatton Plaza Newsagency ,"7/8 Plaza Shopping Centre Spencer St, Gatton, Western",-27.558271,152.279529,Western,1,Standard retailer,,go card,,,Buy,,,,,,
248,Gaythorne station,"30 Station Avenue, Enoggera, Brisbane North",-27.4193,152.986,Brisbane,5,Rail fare machine,,,,,Top up,,,,,Brisbane,
426,Gaythorne Station,"30 Station Avenue, Enoggera, Brisbane North",-27.4193,152.986,Brisbane,6,Rail ticket office,,go card,,,Buy,Top up,Register,Refund,Change expiry date,Brisbane,
249,Geebung station,"Railway Parade, Geebung, Brisbane North",-27.3689,153.047,Brisbane,5,Rail fare machine,,,,,Top up,,,,,Brisbane,
367,Geebung station,"Railway Parade, Geebung, Brisbane North",-27.3689,153.047,Brisbane,6,Rail ticket office,,go card,,,Buy,Top up,Register,Refund,Change expiry date,Brisbane,
37,George Street News,"370 George Street, Brisbane , Brisbane Central",-27.4689,153.021,Brisbane,1,Standard retailer,,go card,Visitor Information Pack,,Buy,Top up,Change expiry date,,,Brisbane,
537,Given Terrace Newsagency,"Shop 1/209 Given Terrace, Paddington, Brisbane North",-27.4616,153.006,Brisbane North,1,Standard retailer,,go card,,,Buy,,,,,,
250,Glasshouse Mountains station,"Reed Street, Glasshouse Mountains",-26.8997,152.957,Sunshine Coast,5,Rail fare machine,,,,,Top up,,,,,Sunshine Coast,
427,Glasshouse Mountains station,"Reed Street, Glasshouse Mountains, Northern",-26.8997,152.957,Sunshine Coast,6,Rail ticket office,,go card,,,Buy,Top up,Register,Refund,Change expiry date,Sunshine Coast,
801,Gold Coast Tourism Information Desk,"Gold Coast Airport, Eastern Avenue, Bilinga, Queensland, Australia",-28.165645,153.509074,Gold Coast,1,Standard retailer,"Please note this agent does not sell go cards.  
Refunds not available from this agent. Customers are able to apply for an EFT refund to an Australian bank account by filling in the 'go card guide to Balance Transfers and Refunds' Form available from the agent. ",go card,Gold Coast go explore card,,Buy,Top up,Change expiry date,,,Gold Coast,
521,Gold Coast Tourism Visitor Information Booth,"2 Cavill Avenue, Surfers Paradise, Queensland, Australia",-28.001927,153.428923,Gold Coast,1,Standard retailer,,go card,Gold Coast go explore card,,Buy,Top up,Register,Refund,Change expiry date,Gold Coast,
646,Gold Coast Tourist Shuttle Desk,"Gold Coast Airport, Airport (Gold Coast - Coolangatta), Gold Coast",-28.16626,153.512886,Gold Coast,1,Standard retailer,"Refunds not available from this agent.  
Customers are able to apply for an EFT refund to an Australian bank account by filling in the 'go card guide to Balance Transfers and Refunds' Form available from the agent.",go card,Gold Coast go explore card,,Buy,Top up,Refund,Change expiry date,,Gold Coast,
886,Gold Coast University Hospital tram station,"Corner Parklands Drive and University Drive, Southport, Queensland, Australia",-27.96055,153.380514,,1,Standard retailer,,go card,,,Buy,Top up,,,,Gold Coast,
781,Golden Beach News,"Shop 6, 46 Landsborough Parade, Golden Beach, Queensland, Australia",-26.821495,153.120058,Sunshine Coast,2,Preloaded reseller,,go card,,,Buy,,,,,,
251,Goodna station,"Ryan Street, Goodna, Western",-27.6088,152.902,Brisbane,5,Rail fare machine,,,,,Top up,,,,,Brisbane,
375,Goodna station,"Ryan Street, Goodna, Western",-27.6088,152.902,Brisbane,6,Rail ticket office,,go card,,,Buy,Top up,Register,Refund,Change expiry date,Brisbane,
38,GPO News,"Shop 1, 40 Creek Street, Brisbane , Brisbane Central",-27.4671,153.029,Brisbane Central,1,Standard retailer,,go card,SEEQ card,Visitor Information Pack,Buy,Top up,Register,Refund,Change expiry date,Brisbane,
252,Graceville station,"Honour Avenue, Graceville, Brisbane South",-27.5213,152.976,Brisbane,5,Rail fare machine,,,,,Top up,,,,,Brisbane,
370,Graceville station,"Honour Avenue, Graceville, Brisbane South",-27.5213,152.976,Brisbane,6,Rail ticket office,,go card,,,Buy,Top up,Register,Refund,Change expiry date,Brisbane,
505,Greenbank Plaza News,"Shop 3, 15 Pub Lane, Greenbank, Southern",-27.7383,152.983,Southern,1,Standard retailer,,go card,,,Buy,,,,,,
591,Greenslopes Busway,"Barnsdale Place, Greenslopes, Brisbane South",-27.510946,153.040493,Brisbane South,1,Standard retailer,,go card,,,Buy,Top up,,,,,
88,Greenslopes Newsagency,"Shop 19, Greenslopes Mall, 700 Logan Road, Greenslopes, Brisbane South",-27.5121,153.054,Brisbane,1,Standard retailer,,go card,,,Buy,Top up,Change expiry date,,,Brisbane,
477,Griffith University busway station,"access to Plaza from roundabout at bottom of Sports Road , Mount Gravatt, Brisbane South",-27.5466,153.064,Brisbane South,1,Standard retailer,,go card,,,Buy,Top up,,,,,
876,Griffith University tram station,"Corner Parklands Drive and Engineering Drive, Southport, Queensland, Australia",-27.962972,153.384389,,1,Standard retailer,,go card,,,Buy,Top up,,,,Gold Coast,
253,Grovely station,"Blaker road, Grovely, Brisbane North",-27.405,152.962,Brisbane,5,Rail fare machine,,,,,Top up,,,,,Brisbane,
428,Grovely station,"Blaker Road, Grovely, Brisbane North",-27.405,152.962,Brisbane,6,Rail ticket office,,go card,,,Buy,Top up,Register,Refund,Change expiry date,Brisbane,
151,GUGC Student Guild,"Griffith University, Parklands Drive, The Link Building, Gold Coast Campus, Southport, Gold Coast",-27.96094,153.382255,Gold Coast,1,Standard retailer,,go card,Gold Coast go explore card,,Buy,Top up,Change expiry date,,,Gold Coast,
254,Gympie North station,"Sandy Creek Road, Gympie North, Sunshine Coast",-26.1627,152.686,Gympie,5,Rail fare machine,,,,,Top up,,,,,Gympie,
362,Gympie North station,"Sandy Creek Road, Gympie North, Sunshine Coast",-26.1627,152.686,Gympie,6,Rail ticket office,,go card,,,Buy,Top up,Register,Refund,Change expiry date,Gympie,
255,Helensvale station,"Town Centre Drive, Helensvale, Gold Coast",-27.9258,153.339,Gold Coast,5,Rail fare machine,,,,,Top up,,,,,Gold Coast,
91,Helensvale station,"Town Centre Drive, Helensvale, Gold Coast",-27.9258,153.339,Gold Coast,6,Rail ticket office,,go card,SEEQ card,,Buy,Top up,Register,Refund,Change expiry date,Gold Coast,
256,Hemmant station,"38 Hemmant-Tingalpa Road, Hemmant, Brisbane East",-27.4475,153.127,Brisbane,5,Rail fare machine,,,,,Top up,,,,,Brisbane,
429,Hemmant station,"38 Hemmant-Tingalpa Road, Hemmant, Brisbane East",-27.4475,153.127,Brisbane,6,Rail ticket office,,go card,,,Buy,Top up,Register,Refund,Change expiry date,Brisbane,
257,Hendra station,"Chermside Street, Hendra, Brisbane North",-27.4222,153.063,Brisbane,5,Rail fare machine,,,,,Top up,,,,,Brisbane,
1126,Hi Surf Apartments,"150 The Esplanade, Burleigh Heads, Queensland, Australia",-28.080915,153.448477,,2,Preloaded reseller,,Gold Coast go explore card,,,Buy,,,,,Gold Coast,
596,Holland Park Busway,"Holland Park Busway Station, Holland Park, Brisbane South",-27.523145,153.054915,Brisbane South,1,Standard retailer,,go card,,,Buy,Top up,,,,,
1436,Holland Park Newsagency,"1/109 Seville Road, Holland Park, Queensland, Australia",-27.521484,153.074011,Brisbane,1,Standard retailer,,,,,,,,,,Brisbane,
258,Holmview station,"Spanns Road, Beenleigh, Southern",-27.7095,153.187,Southern,2,Preloaded reseller,,,,,Top up,,,,,,
430,Holmview station,"Spanns Road, Beenleigh, Southern",-27.7095,153.187,Logan,6,Rail ticket office,,go card,,,Buy,Top up,Register,Refund,Change expiry date,Logan,
463,IGA Acacia Ridge,"28 Elizabeth Street, Acacia Ridge, Brisbane South",-27.5902,153.027,Brisbane,1,Standard retailer,,go card,,,Buy,,,,,Brisbane,
647,IGA East Brisbane,"33 Lytton Road, East Brisbane, Brisbane East",-27.47948,153.04446,Brisbane,1,Standard retailer,,go card,,,Buy,Top up,Change expiry date,,,Brisbane,
542,IGA Express Woolloongabba,"14 Annerley Road, Woolloongabba, Brisbane South",-27.4875,153.029,Brisbane South,1,Standard retailer,,go card,,,Buy,,,,,,
348,IGA Forest Lake,"Corner Forest Lake Boulevard and Woogaroo Street, Forest Lake, Brisbane West",-27.6112,152.959,Brisbane West,1,Standard retailer,,go card,,,Buy,,,,,,
96,Inala Plaza News,"Shop 4, Inala Civic Centre, Corsair Avenue, Inala, Brisbane West",-27.599,152.975,Brisbane,1,Standard retailer,,go card,,,Buy,Top up,Change expiry date,,,Brisbane,
259,Indooroopilly station,"Railway Avenue, Indooroopilly, Brisbane West",-27.503,152.976,Brisbane,5,Rail fare machine,,,,,Top up,,,,,Brisbane,
361,Indooroopilly station,"Railway Avenue, Indooroopilly, Brisbane West",-27.503,152.976,Brisbane,6,Rail ticket office,,go card,,,Buy,Top up,Register,Refund,Change expiry date,Brisbane,
169,Infinity News,"3215 Logan Road, Underwood, Southern",-27.607,153.11,Southern,1,Standard retailer,,go card,,,Buy,Top up,Change expiry date,,,,
260,International Terminal station,"Airport Drive, Airport (Brisbane), Brisbane East",-27.403,153.109,Brisbane,5,Rail fare machine,,,,,Top up,,,,,Brisbane,
261,Ipswich station,"Bell Street, Ipswich, Western",-27.6129,152.761,Brisbane,5,Rail fare machine,,,,,Top up,,,,,Brisbane,
99,Ipswich station,"Bell Street, Ipswich, Western",-27.6129,152.761,Brisbane,6,Rail ticket office,,go card,SEEQ card,,Buy,Top up,Register,Refund,Change expiry date,Brisbane,
560,Jindalee News,"Shop 5, 86 Curragundi Road, Jindalee, Brisbane West",-27.534681,152.935247,Brisbane,1,Standard retailer,,go card,,,Buy,,,,,Brisbane,
1416,JTB Lounge,"3191 Surfers Paradise Boulevard, Surfers Paradise, Queensland, Australia",-27.999085,153.428729,,2,Preloaded reseller,,,,,,,,,,Gold Coast,
336,Junction News and Casket,"Shop 2, 500 Ipswich Road, Annerley, Brisbane South",-27.5112,153.032,Brisbane,1,Standard retailer,,go card,,,Buy,,,,,Brisbane,
509,Kallangur Fair News,"1473 Anzac Avenue, Kallangur, Northern",-27.2501,152.999,Northern,1,Standard retailer,,go card,,,Buy,,,,,,
1506,Kallangur News,"1406 Anzac Avenue, Kallangur, Queensland, Australia",-27.250229,152.993461,,1,Standard retailer,,,,,,,,,,Brisbane,
1031,Karana Palms Resort,"40-42 Tarcoola Crescent, Surfers Paradise, Queensland, Australia",-27.999348,153.423854,,2,Preloaded reseller,,Gold Coast go explore card,,,Buy,,,,,Gold Coast,
262,Karrabin station,"Karrabin-Rosewood Road, Karrabin, Western",-27.6045,152.709,Ipswich,5,Rail fare machine,,,,,Top up,,,,,Ipswich,
403,Kedron Newsagency and Casket Shop,"359 Gympie Road (cnr Castle Road), Kedron, Brisbane North",-27.4045,153.032,Brisbane,1,Standard retailer,,go card,,,Buy,,,,,Brisbane,
102,Kelvin Grove News & Post Office,"Victoria Park Road, Queensland University of Technology (C block), Kelvin Grove, Brisbane North",-27.4518,153.015,Brisbane,1,Standard retailer,,go card,,,Buy,Top up,Change expiry date,,,Brisbane,
186,Kenmore News & Casket,"2069 Moggill Road , Kenmore, Brisbane West",-27.5085,152.938,Brisbane,1,Standard retailer,,go card,,,Buy,,,,,Brisbane,
263,Keperra station,"Silvertop Street, Keperra, Brisbane North",-27.409,152.957,Brisbane,5,Rail fare machine,,,,,Top up,,,,,Brisbane,
386,Keperra station,"Silvertop Street, Keperra, Brisbane North",-27.409,152.957,Brisbane,6,Rail ticket office,,go card,,,Buy,Top up,Register,Refund,Change expiry date,Brisbane,
474,King George Square busway station,"corner Ann and Roma Streets, access also available from Adelaide Street, Brisbane , Brisbane Central",-27.4669,153.022,Brisbane Central,1,Standard retailer,,go card,,,Buy,Top up,,,,,
264,Kingston station,"Milky Way Street, Kingston, Southern",-27.6574,153.118,Logan,5,Rail fare machine,,,,,Top up,,,,,Logan,
431,Kingston station,"Milky Way Street, Kingston, Southern",-27.6574,153.118,Logan,6,Rail ticket office,,go card,,,Buy,Top up,Register,Refund,Change expiry date,Logan,
265,Kuraby station,"1370 Beenleigh Road, Kuraby, Southern",-27.6049,153.091,Logan,5,Rail fare machine,,,,,Top up,,,,,Logan,
381,Kuraby station,"1370 Beenleigh Road, Kuraby, Southern",-27.6049,153.091,Logan,5,Rail fare machine,,go card,,,Buy,Top up,Register,Refund,Change expiry date,Logan,
1616,Landsborough Newsagency,"1/1 Maleny Street, Landsborough, Queensland, Australia",-26.808765,152.964943,Sunshine Coast,2,Preloaded reseller,,,,,,,,,,Sunshine Coast,
266,Landsborough station,"Cribb Street, Landsborough, Sunshine Coast",-26.8084,152.966,Sunshine Coast,5,Rail fare machine,,,,,Top up,,,,,Sunshine Coast,
384,Landsborough station,"Cribb Street, Landsborough, Sunshine Coast",-26.8084,152.966,Sunshine Coast,6,Rail ticket office,,go card,,,Buy,Top up,Register,Refund,Change expiry date,Sunshine Coast,
642,Langlands Busway,"Cnr Old Cleveland Rd and Mains Road, Coorparoo, Brisbane East",-27.498635,153.050149,Brisbane East,1,Standard retailer,,go card,,,Buy,Top up,,,,,
267,Lawnton station,"Station Road, Lawnton, Northern",-27.2816,152.981,Moreton Bay,5,Rail fare machine,,,,,Top up,,,,,Moreton Bay,
360,Lawnton station,"Station Road, Lawnton, Northern",-27.2816,152.981,Moreton Bay,6,Rail ticket office,,go card,,,Top up,,,,,Moreton Bay,
268,Lindum station,"Sibley Road, Lindum, Brisbane East",-27.4421,153.145,Brisbane,5,Rail fare machine,,,,,Top up,,,,,Brisbane,
432,Lindum station,"Sibley Road, Lindum, Brisbane East",-27.4421,153.145,Brisbane,6,Rail ticket office,,go card,,,Buy,Top up,Register,Refund,Change expiry date,Brisbane,
605,Lockyer Valley Tourist Information Centre,"Lake Apex Drive, Gatton, Western",-27.570008,152.270886,Western,1,Standard retailer,,go card,,,Buy,,,,,,
588,Loganholme Bus Interchange,"Cnr Service Rd and Mandew St, Loganholme, Southern",-27.660298,153.173541,Southern,4,Bus fare machine,,go card,,,Buy,Top up,,,,,
269,Loganlea station,"Station Road, Loganlea, Southern",-27.671,153.139,Logan,5,Rail fare machine,,,,,Top up,,,,,Logan,
374,Loganlea station,"Station Road, Loganlea , Southern",-27.671,153.139,Logan,6,Rail ticket office,,go card,,,Buy,Top up,Register,Refund,Change expiry date,Logan,
270,Lota station,"Railway Terrace, Lota, Brisbane East",-27.4701,153.188,Brisbane,5,Rail fare machine,,,,,Top up,,,,,Brisbane,
433,Lota station,"Railway Terrace, Lota, Brisbane East",-27.4701,153.188,Brisbane,6,Rail ticket office,,go card,,,Buy,Top up,Register,Refund,Change expiry date,Brisbane,
706,Lucky 7 Broadwater,"5 Nind Street, Southport, Queensland, Australia",-27.963057,153.413301,Gold Coast,2,Preloaded reseller,,go card,Gold Coast go explore card,,Buy,,,,,Gold Coast,
1406,Lucky 7 Circle,"3184 Surfers Paradise Boulevard, Surfers Paradise, Queensland, Australia",-28.000986,153.42705,,2,Preloaded reseller,,,,,,,,,,Gold Coast,
659,Lucky 7 Edward Street,"Shop 2, 160 Edward Street, Brisbane, Brisbane Central",-27.469461,153.027863,Brisbane Central,1,Standard retailer,,go card,,,Buy,,,,,,
796,Lucky 7 Shores,"Shop 414, 1 Como Crescent, Southport, Queensland, Australia",-27.973923,153.418525,,2,Preloaded reseller,,go card,Gold Coast go explore card,,Buy,,,,,Gold Coast,
1611,Lucky 7 – View Convenience,Shop G38 - Corner of View Avenue and Surfers Paradise Boulevard,-27.997786,153.42889,Gold Coast,2,Preloaded reseller,Shop G38 - Corner of View Avenue and Surfers Paradise Boulevard,,,,,,,,,Gold Coast,
571,Lucky Charm Noosa,"Shop 1069A, Noosa Civic, 28 eenie Creek Road, Noosaville, Sunshine Coast",-26.4158,153.049,Sunshine Coast,1,Standard retailer,,go card,,,Buy,,,,,,
751,Lucky Dragon Newsagency,"Australia Fair, 42 Marine Parade, Southport, Queensland, Australia",-27.969082,153.415665,Gold Coast,2,Preloaded reseller,,go card,Gold Coast go explore card,,Buy,,,,,Gold Coast,
806,Lucky Mermaid News & Gifts,"3/2453 Gold Coast Highway, Mermaid Beach, Queensland, Australia",-28.045714,153.435431,,2,Preloaded reseller,,go card,,,Buy,,,,,Gold Coast,
681,Lytton Road News,"83 Lytton Road, East Brisbane, Brisbane East",-27.479865,153.046272,Brisbane East,1,Standard retailer,,go card,,,Buy,,,,,,
1636,Macgregor News,"342 McCullough Street, Macgregor, Queensland, Australia",-27.571407,153.065128,Brisbane,2,Preloaded reseller,,,,,,,,,,Brisbane,
694,Macleay Island Post Office,"Shop 2, 36 Southsea Terrace, Macleay Island, Eastern",-27.629638,153.364813,Eastern,1,Standard retailer,,go card,,,Buy,,,,,,
891,Main Beach tram station,"Corner Gold Coast Highway and Tedder Avenue, Main Beach, Queensland, Australia",-27.9821,153.423886,,1,Standard retailer,,go card,,,Buy,Top up,,,,Gold Coast,
736,Manly Harbour Newsagency,"Shop 12, 222 Stratton Terrace, Manly, Queensland, Australia",-27.454744,153.185659,Brisbane,1,Standard retailer,,go card,,,Buy,,,,,Brisbane,
271,Manly station,"Ernest Street, Manly, Brisbane East",-27.457,153.18,Brisbane,5,Rail fare machine,,,,,Top up,,,,,Brisbane,
112,Manly station,"Ernest Street, Manly, Brisbane East",-27.457,153.18,Brisbane,6,Rail ticket office,,go card,,,Buy,Top up,Register,Refund,Change expiry date,Brisbane,
1036,Mantra Broadbeach on the Park,"2685 Gold Coast Highway, Broadbeach, Queensland, Australia",-28.030702,153.430424,,2,Preloaded reseller,,Gold Coast go explore card,,,Buy,,,,,Gold Coast,
1041,Mantra Sun City,"Ocean Avenue, Surfers Paradise, Queensland, Australia",-27.993107,153.428985,,1,Standard retailer,,Gold Coast go explore card,,,Buy,,,,,Gold Coast,
1466,Margate News and Casket,"270 Oxley Avenue, Margate, Queensland, Australia",-27.244551,153.107871,,2,Preloaded reseller,,,,,,,,,,Brisbane,
1046,Mari Court Resort,"23 Wharf Road, Surfers Paradise, Queensland, Australia",-28.015495,153.430599,,2,Preloaded reseller,,Gold Coast go explore card,,,Buy,,,,,Gold Coast,
1131,Markham Court,"36 Australia Avenue, Broadbeach, Queensland, Australia",-28.024987,153.43078,,2,Preloaded reseller,,Gold Coast go explore card,,,Buy,,,,,Gold Coast,
821,Maroochydore Bus Station,"Horton Parade, Maroochydore, Queensland, Australia",-26.654875,153.091151,,4,Bus fare machine,,go card,,,Buy,,,,,Sunshine Coast,
562,Mary Ryans Bookstore,"40 Park Road, Milton, Brisbane West",-27.4713,153.005,Brisbane,1,Standard retailer,,go card,,,Buy,,,,,Brisbane,
39,Mary Street News,"Shop 4, 100 Edward Street , Brisbane , Brisbane Central",-27.4704,153.029,Brisbane,1,Standard retailer,,go card,Visitor Information Pack,,Buy,Top up,Change expiry date,,,Brisbane,
473,Mater Hill busway station,"Stanley Street, opposite Mater Public Hospital, South Brisbane, Brisbane Central",-27.4842,153.028,Brisbane Central,1,Standard retailer,,go card,,,Buy,Top up,,,,,
178,Mater News Central,"550 Stanley Street, Woolloongabba, Brisbane South",-27.4848,153.028,Brisbane,1,Standard retailer,,go card,SEEQ card,Visitor Information Pack,Buy,Top up,Register,Refund,Change expiry date,Brisbane,
672,Matilda Broadbeach,"75 T.E. Peters Drive , Broadbeach, Gold Coast",-28.026559,153.420625,Gold Coast,1,Standard retailer,,go card,,,Buy,,,,,,
98,Metro News Indooroopilly,"Level 3, Indooroopilly Shoppingtown, Indooroopilly, Brisbane West",-27.4976,152.974,Brisbane,1,Standard retailer,,go card,SEEQ card,Visitor Information Pack,Buy,Top up,Register,Refund,Change expiry date,Brisbane,
1481,Metro News On 1st (Level 1),"Indooroopilly Shopping Centre, Moggill Road, Indooroopilly, Queensland, Australia",-27.499652,152.972679,Brisbane,1,Standard retailer,,,,,,,,,,Brisbane,
561,Middle Park News and Gifts,"Park Village Shopping Centre, 92 Horizon Drive, Middle Park, Brisbane West",-27.555213,152.923094,Brisbane,1,Standard retailer,,go card,,,Buy,,,,,Brisbane,
398,Midway News and Casket,"Shop 2, 544 Oxley Avenue, Redcliffe, Northern",-27.2173,153.112,Northern,1,Standard retailer,,go card,,,Buy,,,,,,
119,Milton News Centre,"Shop 3, Milton Shopping Centre, Baroona Road, Milton, Brisbane West",-27.4685,153.003,Brisbane,1,Standard retailer,,go card,,,Buy,Top up,Change expiry date,,,Brisbane,
365,Milton station ,"Milton Road, Milton, Brisbane West",-27.4686,153.006,Brisbane,5,Rail fare machine,,go card,,,Buy,Top up,Register,Refund,Change expiry date,Brisbane,
272,Milton station,"Milton Road, Milton, Brisbane West",-27.4686,153.006,Brisbane West,6,Rail ticket office,,,,,Top up,,,,,Brisbane,
41,Mineral House News,"41 George Street, Brisbane , Brisbane Central",-27.473771,153.026526,Brisbane,1,Standard retailer,,go card,Visitor Information Pack,,Buy,Top up,Change expiry date,,,Brisbane,
120,Mitchelton station,"McConaghy Street, Mitchelton, Brisbane North",-27.4115,152.976,Brisbane North,5,Rail fare machine,,go card,,,Buy,Top up,Register,Refund,Change expiry date,Brisbane,
273,Mitchelton station,"McConaghy Street, Mitchelton, Brisbane North",-27.4115,152.976,Brisbane North,6,Rail ticket office,,,,,Top up,,,,,Brisbane,
274,Mooloolah station," Mooloolah Connection Road, Mooloolah Valley, Sunshine Coast",-26.7653,152.963,Sunshine Coast,5,Rail fare machine,,,,,Top up,,,,,Sunshine Coast,
664,Moorooka Foodstore and News,"419 Beaudesert Road, Moorooka, Brisbane South",-27.543033,153.020663,Brisbane South,1,Standard retailer,,go card,,,Buy,,,,,,
275,Moorooka station,"1151 Ipswich Road, Moorooka, Brisbane South",-27.5355,153.014,Brisbane,5,Rail fare machine,,,,,Top up,,,,,Brisbane,
434,Moorooka station,"1151 Ipswich Road, Moorooka, Brisbane South",-27.5355,153.014,Brisbane,6,Rail ticket office,,go card,,,Buy,Top up,Register,Refund,Change expiry date,Brisbane,
187,Moorvale News,"186 Beaudesert Road, Moorooka, Brisbane South",-27.5326,153.025,Brisbane,1,Standard retailer,,go card,,,Buy,,,,,Brisbane,
276,Morayfield station,"Visentin Road, Morayfield, Northern",-27.1098,152.952,Moreton Bay,5,Rail fare machine,,,,,Top up,,,,,Moreton Bay,
123,Morayfield station,"Visentin Road, Morayfield, Northern",-27.1098,152.952,Moreton Bay,6,Rail ticket office,,go card,,,Buy,Top up,Register,Refund,Change expiry date,Moreton Bay,
1681,Morningside Central News,"Shop 11, 25 Junction Road, Morningside, Queensland, Australia",-27.466104,153.080204,Brisbane,1,Standard retailer,,,,,,,,,,Brisbane,
689,Morningside News and Casket,"595 Wynnum Road, Morningside, Brisbane East",-27.468872,153.071304,Brisbane,2,Preloaded reseller,,go card,,,Buy,,,,,Brisbane,
277,Morningside station,"Waminda Street, Morningside, Brisbane East",-27.4705,153.07,Brisbane,5,Rail fare machine,,,,,Top up,,,,,Brisbane,
376,Morningside station,"Waminda Street, Morningside, Brisbane East",-27.4705,153.07,Brisbane,6,Rail ticket office,,go card,,,Buy,Top up,Register,Refund,Change expiry date,Brisbane,
1666,Mountain View News,"967 Logan Road, Holland Park West, Queensland, Australia",-27.519645,153.061564,Brisbane,2,Preloaded reseller,,,,,,,,,,Brisbane,
1831,Mt Gravatt News ,"1488 Logan Road, Mount Gravatt, Queensland, Australia",-27.538522,153.079598,Brisbane,1,Standard retailer,,,,,,,,,,Brisbane,
278,Murarrie station,"Murrarie Road, Murarrie, Brisbane East",-27.4648,153.105,Brisbane,5,Rail fare machine,,,,,Top up,,,,,Brisbane,
435,Murarrie station,"Murarrie Road, Murarrie, Brisbane East",-27.4648,153.105,Brisbane,6,Rail ticket office,,go card,,,Buy,Top up,Register,Refund,Change expiry date,Brisbane,
502,Nambour News and Casket,"Centenary Square, Currie St, Nambour, Sunshine Coast",-26.6278,152.959,Sunshine Coast,1,Standard retailer,,go card,,,Buy,,,,,,
279,Nambour station,"Civic Way, Nambour, Sunshine Coast",-26.6258,152.958,Sunshine Coast,5,Rail fare machine,,,,,Top up,,,,,Sunshine Coast,
125,Nambour station,"Civic Way, Nambour, Sunshine Coast",-26.6258,152.958,Sunshine Coast,6,Rail ticket office,,go card,SEEQ card,,Buy,Top up,Register,Refund,Change expiry date,Sunshine Coast,
1661,Narangba Licensed Post Office,"36 Main Street, Narangba, Queensland, Australia",-27.202777,152.959402,Brisbane,2,Preloaded reseller,,,,,,,,,,Brisbane,
280,Narangba station,"448 Burpengary Road, Narangba, Northern",-27.2029,152.961,Moreton Bay,5,Rail fare machine,,,,,Top up,,,,,Moreton Bay,
436,Narangba station,"448 Burpengary Road, Narangba, Northern",-27.2029,152.961,Moreton Bay,5,Rail fare machine,,go card,,,Buy,Top up,Register,Refund,Change expiry date,Moreton Bay,
580,Narangba Valley News,"Shop 6, 212 Young Road, Narangba, Northern",-27.173203,152.936888,Northern,1,Standard retailer,,go card,,,Buy,,,,,,
126,Nathan Post Office,"Kessels Road, Community Centre, Griffith University, Nathan, Brisbane South",-27.5529,153.054,Brisbane,1,Standard retailer,,go card,SEEQ card,Visitor Information Pack,Buy,Top up,Register,Refund,Change expiry date,Brisbane,
1051,Neptune Resort,"32 Surf Parade, Broadbeach, Queensland, Australia",-28.033787,153.431294,,2,Preloaded reseller,,Gold Coast go explore card,,,Buy,,,,,Gold Coast,
281,Nerang station,"Warrener Street, Nerang, Gold Coast",-27.9943,153.35,Gold Coast,2,Preloaded reseller,,,,,Top up,,,,,,
127,Nerang station,"Warrener Street, Nerang, Gold Coast",-27.9943,153.35,Gold Coast,6,Rail ticket office,,go card,,,Buy,Top up,Register,Refund,Change expiry date,Gold Coast,
836,Nerang Street tram station,"Corner Nerang Street and Cougal Street, Southport, Queensland, Australia",-27.971077,153.407677,,1,Standard retailer,,go card,,,Buy,Top up,,,,Gold Coast,
569,Newmarket Post Office,"Shop 123, 400 Newmarket Road, Newmarket, Brisbane North",-27.4371,153.007,Brisbane North,1,Standard retailer,,go card,,,Buy,,,,,,
282,Newmarket station,"Abuklea Street, Newmarket, Brisbane North",-27.4328,153.011,Brisbane,5,Rail fare machine,,,,,Top up,,,,,Brisbane,
437,Newmarket station,"Abuklea Street, Newmarket, Brisbane North",-27.4328,153.011,Brisbane,6,Rail ticket office,,go card,,,Buy,Top up,Register,Refund,Change expiry date,Brisbane,
1451,News Bulletin,"6/75 Braun Street, Deagon, Queensland, Australia",-27.330283,153.057646,Brisbane,1,Standard retailer,,,,,,,,,,Brisbane,
499,News Extra Gumdale,"Shop 4, 696 New Cleveland Road, Gumdale, Eastern",-27.4905,153.153,Brisbane,1,Standard retailer,,go card,,,Buy,,,,,Brisbane,
63,NewsExtra Capalaba,"Shop 77, Capalaba Central Shopping Centre, Moreton Bay Road, Capalaba, Eastern",-27.5231,153.194,Eastern,1,Standard retailer,,go card,,,Buy,,,,,,
682,NewsExtra Everton Park,"Shop 2/801 Stafford Road , Everton Park, Brisbane North",-27.406636,152.992052,Brisbane North,1,Standard retailer,,go card,,,Buy,,,,,,
356,NewsXpress Alexandra Hills,"Shop 9, Alexandra Hills Shopping Centre, Cnr Finucane Road and Cambridge Drive, Alexandra Hills, Eastern",-27.5246,153.221,Eastern,1,Standard retailer,,go card,,,Buy,,,,,,
531,NewsXpress Arana Hills,"Shop 13B, Kmart Plaza, corner Patricks Road and Dawsons Parade, Arana Hills, Brisbane North",-27.3973,152.961,Brisbane,1,Standard retailer,,go card,,,Buy,,,,,Brisbane,
61,NewsXpress Caboolture,"Matthew Terrace, corner James Street, Caboolture, Northern",-27.0833,152.953,Brisbane,1,Standard retailer,,go card,SEEQ card,Visitor Information Pack,Buy,Top up,Register,Refund,Change expiry date,Brisbane,
147,NewsXpress Chancellor Park ,"Shop 7, Chancellor Park, Marketplace University Way, Sippy Downs, Sunshine Coast",-26.7152,153.055,Sunshine Coast,1,Standard retailer,,go card,,,Buy,Top up,Change expiry date,,,Sunshine Coast,
1176,Newsxpress Coomera,"133 Finnegan Way, Coomera, Queensland, Australia",-27.84369,153.32816,,2,Preloaded reseller,,go card,Gold Coast go explore card,,Buy,,,,,Gold Coast,
585,NewsXpress Deception Bay,"Shop 16 Deception Bay SC, Bay Avenue, Deception Bay, Northern",-27.19383,153.029327,Brisbane,1,Standard retailer,,go card,SEEQ card,Visitor Information Pack,Buy,Top up,Register,Refund,Change expiry date,Brisbane,
607,NewsXpress Gatton,"6/6 Railway Street, Gatton, Western",-27.555952,152.277841,Western,1,Standard retailer,,go card,,,Buy,,,,,,
357,NewsXpress Harbour Town,"Shop M2 Harbour Town Shopping Centre, Cnr Brisbane Road &amp; Oxley Drive, Biggera Waters, Gold Coast",-27.931705,153.387871,Gold Coast,1,Standard retailer,,go card,Gold Coast go explore card,,Buy,Top up,Register,Refund,Change expiry date,Gold Coast,
572,NewsXpress Jimboomba,"Shop 10, Junction Shopping Centre, Cusack Lane, Jimboomba, Southern",-27.830644,153.026739,Southern,1,Standard retailer,,go card,,,Buy,,,,,,
670,NewsXpress Kawana,"Shop 353 Kawana Shopping World, Point Cartwright Drive, Kawana, Sunshine Coast",-26.70291,153.128403,Sunshine Coast,1,Standard retailer,,go card,SEEQ card,Visitor Information Pack,Buy,Top up,Register,Refund,Change expiry date,Sunshine Coast,
608,NewsXpress Manly,"Shop 9 Mayfair on Manly SC, Cnr Manly and Hargreaves Rd, Manly West, Eastern",-27.475372,153.154778,Eastern,1,Standard retailer,,go card,,,Buy,,,,,,
50,NewsXpress Myer Centre Level E,"Queen Street Mall, Myer Centre (level E), Brisbane , Brisbane Central",-27.4709,153.024,Brisbane,1,Standard retailer,,go card,Visitor Information Pack,,Buy,Top up,Change expiry date,,,Brisbane,
731,NewsXpress Noosa Heads,"Shop 18, 20 Hastings Street, Noosa Heads, Queensland, Australia",-26.386933,153.089098,Sunshine Coast,2,Preloaded reseller,,go card,,,Buy,,,,,,
503,Newsxpress Noosaville,"Shop 2, 199 Gympie Terrace , Noosaville, Sunshine Coast",-26.3986,153.062,Sunshine Coast,1,Standard retailer,,go card,,,Buy,,,,,,
776,NewsXpress North Lakes,"Lakefield Drive, North Lakes, Queensland, Australia",-27.238184,153.015968,Northern,2,Preloaded reseller,,go card,,,Buy,,,,,,
685,NewsXpress Redcliffe,"20 Anzac Avenue, Redcliffe, Northern",-27.230745,153.115212,Northern,1,Standard retailer,,go card,,,Buy,,,,,,
652,NewsXpress Robina Town Centre,"Market Hall Robina Town Centre, Robina Town Centre Drive, Robina, Queensland, Australia",-28.077591,153.385406,Gold Coast,1,Standard retailer,,go card,Gold Coast go explore card,,Buy,Top up,Register,Refund,Change expiry date,Gold Coast,
761,NewsXpress Southport Park,"Shop 20, Southport Park Shopping Centre, Ferry Road, Southport, Queensland, Australia",-27.985951,153.410518,Gold Coast,2,Preloaded reseller,,go card,,,Buy,,,,,,
166,NewsXpress The Gap,"The Gap Village, 1000 Waterworks Road, The Gap, Brisbane North",-27.445,152.952,Brisbane,1,Standard retailer,,go card,,,Buy,Top up,Change expiry date,,,Brisbane,
619,NewsXpress The Pines,"Shop 29 The Pines Shopping Centre, Guineas Creek Road, Elanora, Gold Coast",-28.135343,153.469333,Gold Coast,1,Standard retailer,,go card,,,Buy,,,,,,
610,Newsxpress Toowong Village,"9 Sherwood Road, Toowong, Brisbane West",-27.48533,152.99154,Brisbane West,1,Standard retailer,,go card,,,Buy,,,,,,
669,newsXpress Town Centre News,"Shop 56, Inala Plaza, 156 Inala Avenue, Inala, Brisbane West",-27.59889,152.97408,Brisbane,1,Standard retailer,,go card,,,Buy,,,,,Brisbane,
648,NewsXpress Westpoint,"Westpoint Plaza, Browns Plains Road, Browns Plains, Brisbane South",-27.660573,153.040452,Brisbane South,1,Standard retailer,,go card,SEEQ card,Visitor Information Pack,Buy,Top up,Register,Refund,Change expiry date,Brisbane,
1211,Newtons Newsagency,"49 Wharf Street, Tweed Heads, New South Wales, Australia",-28.171647,153.542848,,2,Preloaded reseller,,go card,,,Buy,,,,,Gold Coast,
1501,Nextra Booval,"Booval Fair, Brisbane Road, Booval, Queensland, Australia",-27.61511,152.789748,,1,Standard retailer,,,,,,,,,,Ipswich,
469,Nextra Bribie Island News,"Bribie Island Shopping Centre, Bongaree, Queensland, Australia",-27.064302,153.157087,Moreton Bay,1,Standard retailer,,go card,SEEQ card,,Buy,Top up,Register,Refund,Change expiry date,Moreton Bay,
1461,Nextra Browns Plains,"Grand Plaza Shopping Centre, Browns Plains Road, Browns Plains, Queensland, Australia",-27.662644,153.040967,Brisbane,1,Standard retailer,,,,,,,,,,Brisbane,
524,Nextra Burleigh Heads,"Stockland Burleigh Shopping Centre, West Burleigh Road, Burleigh Heads, Gold Coast",-28.096893,153.442285,Gold Coast,1,Standard retailer,,go card,Gold Coast go explore card,,Buy,Top up,Register,Refund,Change expiry date,Gold Coast,
62,Nextra Cannon Hill,"K-Mart Plaza, Creek Road, Cannon Hill, Brisbane East",-27.4711,153.098,Brisbane,1,Standard retailer,,go card,,,Buy,Top up,Change expiry date,,,Brisbane,
641,Nextra Capalaba Park News,"Capalaba Park Shopping Centre, Redland Bay Rd, Capalaba, Eastern",-27.524102,153.191099,Brisbane,1,Standard retailer,,go card,,,Buy,Top up,Change expiry date,,,Brisbane,
1441,Nextra Carindale City News,"Lower Level, Westfield Carindale, Creek Road, Carindale, Queensland, Australia",-27.502998,153.101627,Brisbane,1,Standard retailer,,,,,,,,,,Brisbane,
65,Nextra Carindale News,"Upper Level Westfield Carindale, Creek Road, Carindale, Brisbane East",-27.504137,153.10215,Brisbane East,1,Standard retailer,,go card,SEEQ card,Visitor Information Pack,Buy,Top up,Register,Refund,Change expiry date,Brisbane,
66,Nextra Chermside,"Westfield Shopping Centre, Gympie Road, Chermside, Brisbane North",-27.3854,153.033,Brisbane,1,Standard retailer,,go card,SEEQ card,Visitor Information Pack,Buy,Top up,Register,Refund,Change expiry date,Brisbane,
7,Nextra Day and Night News,"1374 Gympie Road, Aspley, Brisbane North",-27.3626,153.017,Brisbane,1,Standard retailer,,go card,,,Buy,Top up,Change expiry date,,,Brisbane,
1476,Nextra Express Chermside,"Westfield Chermside, Hamilton Road, Chermside, Queensland, Australia",-27.384486,153.032094,Brisbane,1,Standard retailer,,,,,,,,,,Brisbane,
551,Nextra Garden City Lower Level,"Westfield Garden City (lower level, opposite Coles), Logan Road, Mount Gravatt, Brisbane South",-27.5634,153.082,Brisbane South,1,Standard retailer,,go card,,,Buy,Top up,Change expiry date,,,Brisbane,
695,Nextra Garden City Upper Level,"Westfield Garden City (Upper level, near food court), Logan Road, Mount Gravatt, Brisbane South",-27.5641,153.082,Brisbane,1,Standard retailer,,go card,SEEQ card,,Buy,Top up,Register,Refund,Change expiry date,Brisbane,
94,Nextra General Hospital News,"Ned Hanlon Building, Royal Brisbane Hospital, Herston, Brisbane North",-27.4475,153.029,Brisbane,1,Standard retailer,,go card,Visitor Information Pack,,Buy,Top up,Change expiry date,,,Brisbane,
700,Nextra Hyperdome,"Shop 128 Logan Hyperdome, Cnr Pacific Highway and Bryants Road, Loganholme, Southern",-27.6603,153.174,Logan,1,Standard retailer,,go card,SEEQ card,,Buy,Top up,Register,Refund,Change expiry date,Logan,
527,Nextra Kenmore Village News,"Shop 50, Kenmore Village, Brookfield Road, Kenmore, Brisbane West",-27.5072,152.94,Brisbane West,1,Standard retailer,,go card,,,Buy,,,,,,
337,Nextra Lutwyche,"Shop 24, 543 Lutwyche Rd, Lutwyche, Brisbane North",-27.422,153.034,Brisbane North,1,Standard retailer,,go card,,,Buy,,,,,Brisbane,
46,Nextra Macarthur News,"259 Queen Street, Macarthur Central Building, Brisbane , Brisbane Central",-27.4683,153.027,Brisbane,1,Standard retailer,,go card,Visitor Information Pack,,Buy,Top up,Change expiry date,,,Brisbane,
654,Nextra Mt Ommaney,"Mt Ommaney Shopping Centre, 171 Dandenong Road, Mount Ommaney, Brisbane West",-27.54897,152.938354,Brisbane,1,Standard retailer,,go card,SEEQ card,Visitor Information Pack,Buy,Top up,Register,Refund,Change expiry date,Brisbane,
520,Nextra Orion Newsagency,"Shop 29, 1 Main Street Orion Springfield, Springfield, Brisbane West",-27.6776,152.902,Brisbane,1,Standard retailer,,go card,,,Buy,Top up,Change expiry date,,,Brisbane,
511,Nextra Peninsula Fair News,"Peninsula Fair Shopping Centre, Anzac Ave, Kippa-Ring, Northern",-27.2256,153.088,Brisbane,1,Standard retailer,,go card,,,Buy,Top up,Change expiry date,,,Brisbane,
1201,Nextra Riverlink News,"Riverlink Shopping Centre, North Ipswich, Queensland, Australia",-27.608385,152.759836,,2,Preloaded reseller,,go card,,,Buy,,,,,Ipswich,
192,Nextra Toombul,"Sandgate Road, Toombul, Brisbane North",-27.4086,153.061,Brisbane,1,Standard retailer,,go card,,,Buy,,,,,Brisbane,
407,Nextra Wynnum Plaza,"Shop 20, Wynnum Plaza Shopping Centre, 2021 Wynnum Road, Wynnum West, Eastern",-27.4568,153.156,Brisbane,1,Standard retailer,,go card,,,Buy,Top up,Change expiry date,,,Brisbane,
512,Night Owl ,"660 Brunswick Street, New Farm, Brisbane Central",-27.4632,153.042,Brisbane,1,Standard retailer,,go card,,,Buy,Top up,Change expiry date,,,Brisbane,
1196,Night Owl Boondall,"1968 Sandgate Road, Boondall, Queensland, Australia",-27.363933,153.061561,,2,Preloaded reseller,,go card,,,Buy,,,,,Brisbane,
579,Night Owl Highgate Hill,"Shop 2, 34 B Gladstone Road, Highgate Hill, Brisbane South",-27.4845,153.02,Brisbane South,1,Standard retailer,,go card,,,Buy,,,,,,
1216,Night Owl Mermaid Beach,"2375 Gold Coast Highway, Mermaid Beach, Queensland, Australia",-28.049584,153.436301,,2,Preloaded reseller,,go card,Gold Coast go explore card,,Buy,,,,,Gold Coast,
1186,Night Owl North Lakes,"Shop 1, 3 College Street, North Lakes, Queensland, Australia",-27.232057,153.022332,,2,Preloaded reseller,,go card,,,Buy,,,,,Brisbane,
1221,Night Owl Robina,"Easy T Shopping Centre, Scottsdale Drive & Christine Avenue, Robina, Queensland, Australia",-28.084951,153.391622,,2,Preloaded reseller,,go card,Gold Coast go explore card,,Buy,,,,,Gold Coast,
1191,Night Owl Stones Corner,"476 Logan Road, Greenslopes, Queensland, Australia",-27.503265,153.04764,,2,Preloaded reseller,,go card,,,Buy,,,,,Brisbane,
1231,Night Owl Surfers South,"3031 Gold Coast Highway, Surfers Paradise, Queensland, Australia",-28.005486,153.429112,,2,Preloaded reseller,,go card,Gold Coast go explore card,,Buy,,,,,Gold Coast,
578,Night Owl West End,"Shop 1, 158 Boundary St, West End (Brisbane City), Brisbane South",-27.4814,153.012,Brisbane South,1,Standard retailer,,go card,,,Buy,,,,,,
545,Nobby Beach Newsagency,"Shop 1, 2239 Gold Coast Highway, Mermaid Beach, Gold Coast",-28.0587,153.438,Gold Coast,2,Preloaded reseller,,go card,Gold Coast go explore card,,Buy,,,,,Gold Coast,
649,Noosa Junction Bus Interchange,"Sunshine Beach Rd and Lanyana Way, Noosa Heads, Sunshine Coast",-26.399192,153.093399,Sunshine Coast,4,Bus fare machine,,go card,,,Buy,Top up,,,,,
397,Noosa Village News,"Shop 12, Noosa Village Shopping Centre, Gibson Road, Noosaville, Sunshine Coast",-26.4014,153.065,Sunshine Coast,1,Standard retailer,,go card,,,Buy,,,,,,
550,Norfolk News,"Norfolk Village Shopping Centre, 174-178 Pascoe Road, Ormeau, Southern",-27.7639,153.245,Southern,1,Standard retailer,,go card,,,Buy,,,,,,
1446,Norman Park Central News,"1/183 Bennetts Road, Morningside, Queensland, Australia",-27.483568,153.064402,,1,Standard retailer,,,,,,,,,,Brisbane,
283,Norman Park station,"Waite Street, Norman Park, Brisbane East",-27.4818,153.062,Brisbane,5,Rail fare machine,,,,,Top up,,,,,Brisbane,
438,Norman Park station,"Waite Street, Norman Park, Brisbane East",-27.4818,153.062,Brisbane,6,Rail ticket office,,go card,,,Buy,Top up,Register,Refund,Change expiry date,Brisbane,
597,Normanby Busway,"Normanby Busway Station, Red Hill (Brisbane City), Brisbane North",-27.458927,153.01509,Brisbane North,1,Standard retailer,,go card,,,Buy,Top up,,,,,
284,North Boondall station,"Aberdeen Street North, Boondall, Brisbane North",-27.339,153.061,Brisbane,5,Rail fare machine,,,,,Top up,,,,,Brisbane,
439,North Boondall station,"Aberdeen Street North, Boondall, Brisbane North",-27.339,153.061,Brisbane,6,Rail ticket office,,go card,,,Buy,Top up,Register,Refund,Change expiry date,Brisbane,
721,North Lakes Bus Interchange,"Endeavour Boulevard and The Corso, North Lakes, Queensland, Australia",-27.238653,153.017466,Northern,4,Bus fare machine,,go card,,,Buy,Top up,,,,,
472,North Wavell News,"151 Hamilton Road, Wavell Heights, Brisbane North",-27.3893,153.05,Brisbane,1,Standard retailer,,go card,,,Buy,,,,,Brisbane,
926,Northcliffe tram station,"Corner Surfers Paradise Boulevard and Vista Street, Surfers Paradise, Queensland, Australia",-28.009639,153.42946,,1,Standard retailer,,go card,,,Buy,Top up,,,,Gold Coast,
405,Northgate News,"111 Ridge Street, Northgate, Brisbane North",-27.3903,153.066,Brisbane North,1,Standard retailer,,go card,,,Buy,,,,,,
285,Northgate station,"Cnr Ryan &amp; Holland Street, Northgate, Brisbane North",-27.3936,153.069,Brisbane,5,Rail fare machine,,,,,Top up,,,,,Brisbane,
130,Northgate station,"Ryan Street, corner Holland Street, Northgate, Brisbane North",-27.3936,153.069,Brisbane,6,Rail ticket office,,go card,,,Buy,Top up,Register,Refund,Change expiry date,Brisbane,
1676,Nottingham Road News,"Shop 8, 2605 Beaudesert Road, Calamvale, Queensland, Australia",-27.630829,153.045734,Brisbane,1,Standard retailer,,,,,,,,,,Brisbane,
286,Nudgee station,"Railway Street, Nudgee, Brisbane North",-27.3656,153.084,Brisbane,5,Rail fare machine,,,,,Top up,,,,,Brisbane,
440,Nudgee station,"Railway Street, Nudgee, Brisbane North",-27.3656,153.084,Brisbane,6,Rail ticket office,,go card,,,Buy,Top up,Register,Refund,Change expiry date,Brisbane,
287,Nundah station,"Station Street, Nundah, Brisbane North",-27.4009,153.062,Brisbane,5,Rail fare machine,,,,,Top up,,,,,Brisbane,
369,Nundah station,"Station Street, Nundah, Brisbane North",-27.401376,153.061946,Brisbane,6,Rail ticket office,,go card,,,Buy,Top up,Register,Refund,Change expiry date,Brisbane,
288,Ormeau station,"200 Mirambeena Drive, Pimpama, Southern",-27.7991,153.282,Gold Coast,5,Rail fare machine,,,,,Top up,,,,,Gold Coast,
441,Ormeau station,"200 Mirambeena Drive, Pimpama, Southern",-27.7991,153.282,Gold Coast,6,Rail ticket office,,go card,,,Buy,Top up,Register,Refund,Change expiry date,Gold Coast,
289,Ormiston station,"Wellington Street, Ormiston, Eastern",-27.5146,153.256,Redlands,5,Rail fare machine,,,,,Top up,,,,,Redlands,
442,Ormiston station,"Wellington Street, Ormiston, Eastern",-27.5146,153.256,Redlands,6,Rail ticket office,,go card,,,Buy,Top up,Register,Refund,Change expiry date,Redlands,
1056,Outrigger Twin Towns Resort,"Griffith Street, Coolangatta, Queensland, Australia",-28.169044,153.542908,,2,Preloaded reseller,,Gold Coast go explore card,,,Buy,,,,,Gold Coast,
290,Oxford Park station,"Scanlan Road, Mitchelton, Brisbane North",-27.4042,152.968,Brisbane,5,Rail fare machine,,,,,Top up,,,,,Brisbane,
443,Oxford Park station,"Scanlan Road, Mitchelton, Brisbane North",-27.4042,152.968,Brisbane,6,Rail ticket office,,go card,,,Buy,Top up,Register,Refund,Change expiry date,Brisbane,
691,Oxford Street News,"134 Oxford Street, Bulimba, Brisbane South",-27.451,153.058,Brisbane,1,Standard retailer,,go card,,,Buy,Top up,Change expiry date,,,Brisbane,
133,Oxley Rail Station Fare Machine,"Ardoyne Road, Oxley, Brisbane South",-27.5525,152.974,Brisbane,5,Rail fare machine,,go card,,,Top up,,,,,Brisbane,
291,Oxley Rail Station Ticket Office,"140 Ardoyne Road, Oxley, Brisbane South",-27.5525,152.974,Brisbane,6,Rail ticket office,,go card,,,Buy,Top up,Register,Refund,Change expiry date,Brisbane,
592,PA Hospital Busway,"PA Hospital, Ipswich Road, Woolloongabba, Brisbane South",-27.496863,153.033977,Brisbane South,1,Standard retailer,,go card,,,Buy,Top up,,,,,
658,Pacific News and Casket,"4 Bulcock Street, Caloundra, Sunshine Coast",-26.804983,153.135425,Sunshine Coast,1,Standard retailer,,go card,,,Buy,,,,,,
1136,Pacific Views Resort,"Main Beach Parade, Main Beach, Queensland, Australia",-27.982328,153.429105,,2,Preloaded reseller,,Gold Coast go explore card,,,Buy,,,,,Gold Coast,
134,Paddington News ,"Shop 5, 95 Latrobe Terrace, Paddington, Brisbane North",-27.459,152.998,Brisbane,1,Standard retailer,,go card,,,Buy,Top up,Change expiry date,,,Brisbane,
547,Palm Beach Newsagency,"Shop 5A, 10 Fifth Avenue, Palm Beach, Gold Coast",-28.1223,153.472,Gold Coast,1,Standard retailer,,go card,,,Buy,,,,,,
292,Palmwoods station,"Chevallum Road, Palmwoods (Sunshine Coast Regional), Sunshine Coast",-26.6886,152.961,Brisbane,5,Rail fare machine,,,,,Top up,,,,,Brisbane,
444,Palmwoods station,"Chevallum Road, Palmwoods (Sunshine Coast Regional), Sunshine Coast",-26.6886,152.961,Sunshine Coast,6,Rail ticket office,,go card,,,Buy,Top up,Register,Refund,Change expiry date,Sunshine Coast,
136,Park Ridge News,"Park Ridge Shopping Village corner Mt Lindesay Hwy and Park Ridge Road, Park Ridge, Southern",-27.6974,153.039,Brisbane,1,Standard retailer,,go card,,,Buy,Top up,Change expiry date,,,Brisbane,
293,Park Road station,"Quarry Street, Woolloongabba, Brisbane South",-27.4937,153.031,Brisbane,5,Rail fare machine,,,,,Top up,,,,,Brisbane,
445,Park Road station,"Quarry Street, Woolloongabba, Brisbane South",-27.4937,153.031,Brisbane,6,Rail ticket office,,go card,,,Buy,Top up,Register,Refund,Change expiry date,Brisbane,
371,Petrie station ,"Station Street, Petrie, Northern",-27.2678,152.982,Moreton Bay,5,Rail fare machine,,go card,,,Buy,Top up,Register,Refund,Change expiry date,Moreton Bay,
294,Petrie station,"Station Street, Petrie, Northern",-27.2678,152.982,Moreton Bay,6,Rail ticket office,,,,,Top up,,,,,Moreton Bay,
1486,Pinkeys Convenience Store,"17 Zillman Road, Hendra, Queensland, Australia",-27.422296,153.063761,Brisbane,1,Standard retailer,,,,,,,,,,Brisbane,
1001,Pit Stop News and Supermarket,"31 Aubrey Street, Surfers Paradise, Queensland, Australia",-28.011257,153.429921,,2,Preloaded reseller,,go card,Gold Coast go explore card,,Buy,,,,,Gold Coast,
1061,Platform Tours at Marriott Resort & Spa,"158 Ferny Avenue, Surfers Paradise, Queensland, Australia",-27.991322,153.428026,,2,Preloaded reseller,,Gold Coast go explore card,,,Buy,,,,,Gold Coast,
42,Post Office Square News,"280 Queen Street, Brisbane , Brisbane Central",-27.468,153.028,Brisbane Central,1,Standard retailer,,go card,SEEQ card,Visitor Information Pack,Buy,Top up,Register,Refund,Change expiry date,Brisbane,
1656,Q Desk,"Q1 Building, 9 Hamilton Avenue, Surfers Paradise, Queensland, Australia",-28.006222,153.429523,Gold Coast,2,Preloaded reseller,,,,,,,,,,Gold Coast,
1141,Q1 Tour Desk,"9 Hamilton Avenue, Surfers Paradise, Queensland, Australia",-28.006307,153.429727,,2,Preloaded reseller,,Gold Coast go explore card,,,Buy,,,,,Gold Coast,
628,Queen Street Busway,"Lower Level Myer Centre, Queen Street, Brisbane , Brisbane Central",-27.470582,153.025309,Brisbane Central,1,Standard retailer,,go card,,,Buy,Top up,,,,,
851,Queen Street tram station,"Corner Wardoo Street and Queen Street, Southport, Queensland, Australia",-27.970143,153.393909,,1,Standard retailer,,go card,,,Buy,Top up,,,,Gold Coast,
746,Quik-E-Mart,"2/412 Old Cleveland Road, Coorparoo, Queensland, Australia",-27.491928,153.06389,Brisbane,1,Standard retailer,,go card,,,Buy,Top up,Change expiry date,,,Brisbane,
483,QUT Kelvin Grove busway station,"between University and Victoria Park Golf Course, Kelvin Grove, Brisbane North",-27.452,153.019,Brisbane North,1,Standard retailer,,go card,,,Buy,Top up,,,,,
43,QUT Student Guild,"2 George Street, Queensland University of Technology, Gardens Point campus (L block), Brisbane , Brisbane North",-27.4757,153.027,Brisbane,1,Standard retailer,,go card,,,Buy,Top up,Change expiry date,,,Brisbane,
44,Rankins on the Mall,"Queen Street, Brisbane , Brisbane Central",-27.4697,153.025,Brisbane Central,1,Standard retailer,,go card,SEEQ card,Visitor Information Pack,Buy,Top up,Register,Refund,Change expiry date,Brisbane,
482,RBWH busway station,"Bowen Bridge Road, Herston, Brisbane North",-27.4474,153.029,Brisbane North,1,Standard retailer,,go card,,,Buy,Top up,,,,,
295,Redbank station,"Cnr Brisbane Tce &amp; Weedman St, Redbank, Western",-27.5995,152.872,Brisbane,5,Rail fare machine,,,,,Top up,,,,,Brisbane,
446,Redbank station,"corner Brisbane Terrace and Weedman Street, Redbank, Western",-27.5995,152.872,Brisbane,6,Rail ticket office,,go card,,,Buy,Top up,Register,Refund,Change expiry date,Brisbane,
1516,Redcliffe Bus Station,"Humpybong Esplanade, Redcliffe, Queensland, Australia",-27.225499,153.11427,,4,Bus fare machine,,,,,,,,,,Redlands,
141,Redland Bay News ,"Shop 29, Redland Bay Shopping Centre, Broadwater Terrace , Redland Bay, Eastern",-27.6047,153.301,Brisbane,1,Standard retailer,,go card,,,Buy,Top up,Change expiry date,,,Brisbane,
606,Regents Park News,"2/3374 Beaudesert Road, Browns Plains, Brisbane South",-27.666518,153.034598,Brisbane South,1,Standard retailer,,go card,,,Buy,,,,,,
1746,Resort News,"Shop 1621 Pacific Fair Shopping Centre, Hooker Blvd, Broadbeach 4218",-28.035348,153.428214,Gold Coast,1,Standard retailer,,,,,,,,,,Gold Coast,
626,Richlands Rail Station,"Progress Road, Richlands, Brisbane West",-27.596442,152.946558,Brisbane,5,Rail fare machine,,go card,,,Top up,,,,,Brisbane,
625,Richlands Rail Station,"Progress Road, Richlands, Brisbane West",-27.596442,152.946558,Brisbane,6,Rail ticket office,,go card,,,Buy,Top up,Register,Refund,Change expiry date,Brisbane,
90,Riding Road News,"63 Riding Road, Hawthorne, Brisbane East",-27.4668,153.065,Brisbane,1,Standard retailer,,go card,,,Buy,Top up,Change expiry date,,,Brisbane,
620,Riverside Ferry Terminal,"Eagle Street, Brisbane , Brisbane Central",-27.466974,153.030874,Brisbane Central,1,Standard retailer,,go card,SEEQ card,Visitor Information Pack,Buy,Top up,Register,Refund,Change expiry date,Brisbane,
296,Riverview station,"Moggill Ferry road, Riverview (Ipswich City), Western",-27.595,152.851,Brisbane,5,Rail fare machine,,,,,Top up,,,,,Brisbane,
447,Riverview station,"Moggill Ferry Road, Riverview (Ipswich City), Western",-27.595,152.851,Brisbane,6,Rail ticket office,,go card,,,Buy,Top up,Register,Refund,Change expiry date,Brisbane,
143,Robina station,"Bayberry Lane, Robina, Gold Coast",-28.0714,153.378,Gold Coast,5,Rail fare machine,,go card,,,Buy,Top up,Register,Refund,Change expiry date,Gold Coast,
297,Robina station,"Bayberry Lane, Robina, Gold Coast",-28.0714,153.378,Gold Coast,6,Rail ticket office,,,,,Top up,,,,,Gold Coast,
1456,Rochedale News,"549 Underwood Road, Rochedale South, Queensland, Australia",-27.595882,153.124881,Brisbane,1,Standard retailer,,,,,,,,,,Brisbane,
298,Rocklea station,"Brooke Street, Rocklea, Brisbane South",-27.5447,153.014,Brisbane,5,Rail fare machine,,,,,Top up,,,,,Brisbane,
448,Rocklea station,"Brooke Street, Rocklea, Brisbane South",-27.5447,153.014,Brisbane,6,Rail ticket office,,go card,,,Buy,Top up,Register,Refund,Change expiry date,Brisbane,
195,Rode Newsagency,"Shop 22 Rode Shopping Centre, Appleby Road, Stafford Heights, Brisbane North",-27.3917,153.012,Brisbane,1,Standard retailer,,go card,,,Buy,,,,,Brisbane,
598,Roma Street Busway,"Roma Street Busway Station, Brisbane , Brisbane Central",-27.465434,153.017253,Brisbane Central,4,Bus fare machine,Adult go cards only,go card,,,Buy,Top up,,,,Brisbane,
45,Roma Street station,"Roma Street, Brisbane , Brisbane Central",-27.4652,153.019,Brisbane Central,5,Rail fare machine,,go card,SEEQ card,,Buy,Top up,Register,Refund,Change expiry date,Brisbane,
299,Roma Street station,"171 Roma Street, Brisbane , Brisbane Central",-27.4652,153.019,Brisbane,6,Rail ticket office,,,,,Top up,,,,,Brisbane,
496,Rosewood News,"12 John Street, Rosewood, Western",-27.6419,152.593,Western,1,Standard retailer,,go card,,,Buy,,,,,,
300,Rosewood station,"Railway Street, Rosewood, Western",-27.6432,152.593,Western,2,Preloaded reseller,,,,,Top up,,,,,,
144,Rosewood station,"Railway Street, Rosewood, Western",-27.6432,152.593,Western,5,Rail fare machine,,go card,,,Buy,Top up,Register,Refund,Change expiry date,,
1701,Rothwell News,"8/455 Anzac Avenue, Rothwell, Queensland, Australia",-27.218214,153.062571,Brisbane,1,Standard retailer,,,,,,,,,,Brisbane,
1691,Round Table Coffee,"Shop 3, 67 Gawain Road, Bracken Ridge, Queensland, Australia",-27.315082,153.032708,Brisbane,2,Preloaded reseller,,,,,,,,,,Brisbane,
599,Royal Childrens Hospital Busway,"Royal Childrens Hospital, Herston, Brisbane North",-27.449758,153.025944,Brisbane North,1,Standard retailer,,go card,,,Buy,Top up,,,,,
301,Runcorn station,"800 Beenleigh Road, Runcorn, Brisbane South",-27.5924,153.068,Brisbane South,2,Preloaded reseller,,,,,Top up,,,,,,
388,Runcorn station,"800 Beenleigh Road, Runcorn, Brisbane South",-27.5924,153.068,Brisbane,6,Rail ticket office,,go card,,,Buy,Top up,Register,Refund,Change expiry date,Brisbane,
786,Russell Island Licensed Post Office,"69 High Street, Russell Island, Queensland, Australia",-27.651875,153.380854,Moreton Bay,1,Standard retailer,,go card,,,Buy,Top up,Change expiry date,,,Moreton Bay,
302,Salisbury station,"Olivia Avenue, Salisbury, Brisbane South",-27.5532,153.023,Brisbane,5,Rail fare machine,,,,,Top up,,,,,Brisbane,
383,Salisbury station,"Olivia Avenue, Salisbury, Brisbane South",-27.5532,153.023,Brisbane,6,Rail ticket office,,go card,,,Buy,Top up,Register,Refund,Change expiry date,Brisbane,
303,Sandgate station,"Rainbow Street, Sandgate, Northern",-27.3222,153.069,Brisbane,5,Rail fare machine,,,,,Top up,,,,,Brisbane,
145,Sandgate station,"Rainbow Street, Sandgate, Northern",-27.3222,153.069,Brisbane,6,Rail ticket office,,go card,,,Buy,Top up,Register,Refund,Change expiry date,Brisbane,
1066,Seacrest Apartments,"3448 Main Beach Parade, Surfers Paradise, Queensland, Australia",-27.99073,153.429379,,2,Preloaded reseller,,Gold Coast go explore card,,,Buy,,,,,Gold Coast,
338,Sherwood News and Casket Agency,"Shop 4, 686 Sherwood Road, Sherwood (Brisbane City), Brisbane South",-27.5324,152.981,Brisbane South,1,Standard retailer,,go card,,,Buy,,,,,,
304,Sherwood station,"Honour Avenue, Sherwood (Brisbane City), Brisbane South",-27.5316,152.98,Brisbane,5,Rail fare machine,,,,,Top up,,,,,Brisbane,
449,Sherwood station,"Honour Avenue, Sherwood (Brisbane City), Brisbane South",-27.5316,152.98,Brisbane,6,Rail ticket office,,go card,,,Buy,Top up,Register,Refund,Change expiry date,Brisbane,
305,Shorncliffe station,"Railway Parade, Shorncliffe, Brisbane North",-27.3269,153.08,Brisbane,5,Rail fare machine,,,,,Top up,,,,,Brisbane,
450,Shorncliffe station,"Railway Parade, Shorncliffe, Brisbane North",-27.3269,153.08,Brisbane,6,Rail ticket office,,go card,,,Buy,Top up,Register,Refund,Change expiry date,Brisbane,
149,South Bank Beach News,"Stanley Street Plaza, Stanley Street, South Bank, Brisbane Central",-27.4785,153.023,Brisbane,1,Standard retailer,,go card,Visitor Information Pack,,Buy,Top up,Change expiry date,,,Brisbane,
475,South Bank Busway station,"corner of Tribune Street and Colchester Streets, South Brisbane, Brisbane Central",-27.4807,153.022,Brisbane Central,1,Standard retailer,,go card,,,Buy,Top up,,,,,
461,South Bank station,"Grey Street, South Brisbane, Brisbane Central",-27.4818,153.023,Brisbane Central,5,Rail fare machine,,go card,SEEQ card,,Buy,Top up,Register,Refund,Change expiry date,Brisbane,
306,South Bank station,"Grey Street, South Brisbane, Brisbane Central",-27.4818,153.023,Brisbane,6,Rail ticket office,,,,,Top up,,,,,Brisbane,
148,South Brisbane Station,"Grey Street, South Brisbane, Brisbane Central",-27.474857,153.018268,Brisbane Central,5,Rail fare machine,,go card,SEEQ card,,Buy,Top up,Register,Refund,Change expiry date,Brisbane,
307,South Brisbane Station - Ticket Office,"Grey Street, South Brisbane, Brisbane Central",-27.4744,153.018,Brisbane,6,Rail ticket office,,,,,Top up,Change expiry date,,,,Brisbane,
811,Southport RSL,"36 Scarborough Street, Southport, Queensland, Australia",-27.970573,153.414436,,2,Preloaded reseller,,go card,,,Buy,,,,,Gold Coast,
846,Southport South tram station,"Corner Scarborough Street and Queen Street, Southport, Queensland, Australia",-27.973236,153.415717,,1,Standard retailer,,go card,,,Buy,Top up,,,,Gold Coast,
841,Southport tram station,"Corner Nerang Street and Scarborough Street, Southport, Queensland, Australia",-27.967446,153.414237,,1,Standard retailer,,go card,,,Buy,Top up,,,,Gold Coast,
494,Spar Express,"503 St Pauls Terrace, Fortitude Valley, Brisbane Central",-27.454,153.034,Brisbane Central,1,Standard retailer,,go card,,,Buy,,,,,,
676,Spar Express Eight Mile Plains,"5/218 Padstow Road, Eight Mile Plains, Brisbane South",-27.574419,153.087227,Brisbane,1,Standard retailer,,go card,,,Buy,Top up,Change expiry date,,,Brisbane,
1606,SPAR Express Marsden,"Cnr Third Avenue and Macarthy Road, Marsden",-27.674482,153.089572,Brisbane,2,Preloaded reseller,,,,,,,,,,Brisbane,
1411,SPC Mini Mart,"56 Scarborough Street, Southport, Queensland, Australia",-27.970411,153.412793,,1,Standard retailer,,,,,,,,,,Gold Coast,
1856,Springfield Central Rail Station,"Springfield Central, Brookwater, Queensland, Australia",-27.674294,152.902791,Ipswich,5,Rail fare machine,,,,,,,,,,Ipswich,
1601,Springfield Central Rail Station,"Springfield Central, Brookwater, Queensland, Australia",-27.674276,152.902834,Ipswich,6,Rail ticket office,,,,,,,,,,Ipswich,
153,Springfield Fair News,"Springfield Fair Shopping Centre , Springfield, Brisbane West",-27.6533,152.918,Brisbane,1,Standard retailer,,go card,,,Buy,Top up,Change expiry date,,,Brisbane,
1596,Springfield Rail Station,"Nev Smith Drive, Springfield, Queensland, Australia",-27.659538,152.921923,Ipswich,5,Rail fare machine,,,,,,,,,,Ipswich,
1861,Springfield Rail Station,"Nev Smith Drive, Springfield, Queensland, Australia",-27.659766,152.921998,Ipswich,6,Rail ticket office,,,,,,,,,,Ipswich,
590,Springwood Busway Station,"Springwood Busway Station, Springwood, Southern",-27.614579,153.125323,Southern,1,Standard retailer,,go card,,,Buy,Top up,,,,,
155,Springwood Mall Newsagency ,"Shop 9, Centro Shopping Centre, Fitzgerald Avenue, Springwood, Southern",-27.6147,153.125,Brisbane,1,Standard retailer,,go card,,,Buy,Top up,Change expiry date,,,Brisbane,
157,St Lucia News,"217 Hawken Drive, St Lucia, Brisbane West",-27.5025,153.006,Brisbane,1,Standard retailer,,go card,,,Buy,Top up,Change expiry date,,,Brisbane,
513,St Lucia Supermarket,"185  Sir Fred Schonell Drive, St Lucia, Brisbane West",-27.4944,153.003,Brisbane West,1,Standard retailer,,go card,,,Buy,,,,,,
158,Stafford City News,"Stafford City Shopping Centre, 400 Stafford Road, Stafford, Brisbane North",-27.4121,153.013,Brisbane,1,Standard retailer,,go card,,,Buy,Top up,Change expiry date,,,Brisbane,
518,Stanley Road News,"182 Stanley Road, North Carina, Brisbane East",-27.488,153.088,Brisbane East,1,Standard retailer,,go card,,,Buy,,,,,,
643,Stones Corner Busway,"Gladys Street, Coorparoo, Brisbane East",-27.497963,153.0452,Brisbane East,1,Standard retailer,,go card,,,Buy,Top up,,,,,
538,Stones Corner News,"347 Logan Road, Stones Corner, Brisbane South",-27.4992,153.045,Brisbane,1,Standard retailer,,go card,SEEQ card,Visitor Information Pack,Buy,Top up,Register,Refund,Change expiry date,Brisbane,
308,Strathpine station,"Station Street, Strathpine, Northern",-27.3118,152.99,Moreton Bay,5,Rail fare machine,,,,,Top up,,,,,Moreton Bay,
159,Strathpine station,"Station Street, Strathpine, Northern",-27.3118,152.99,Moreton Bay,6,Rail ticket office,,go card,,,Buy,Top up,Register,Refund,Change expiry date,Moreton Bay,
406,Sunnybank Hills News,"Sunny Hill Shopping Town, cnr Calam and Compton Roads, Sunnybank Hills, Brisbane South",-27.6112,153.054448,Brisbane South,1,Standard retailer,,go card,SEEQ card,Visitor Information Pack,Buy,Top up,Register,Refund,Change expiry date,Brisbane,
486,Sunnybank News and Casket Agency,"Shop 22 Sunnybank Plaza, Mains Road, Sunnybank, Brisbane South",-27.5706,153.062,Brisbane South,1,Standard retailer,,go card,SEEQ card,Visitor Information Pack,Buy,Top up,Register,Refund,Change expiry date,Brisbane,
309,Sunnybank station,"Dixon Street, Sunnybank, Brisbane South",-27.5808,153.054,Brisbane,5,Rail fare machine,,,,,Top up,,,,,Brisbane,
368,Sunnybank station,"Dixon Street, Sunnybank, Brisbane South",-27.5808,153.054,Brisbane,6,Rail ticket office,,go card,,,Buy,Top up,Register,Refund,Change expiry date,Brisbane,
404,Sunshine News,"Shop 15, Mt Gravatt Plaza, Mount Gravatt, Brisbane South",-27.5388,153.081,Brisbane,1,Standard retailer,,go card,,,Buy,Top up,Change expiry date,,,Brisbane,
310,Sunshine station,"357 Bilsen Road, Geebung, Brisbane North",-27.3753,153.056,Brisbane,5,Rail fare machine,,,,,Top up,,,,,Brisbane,
451,Sunshine Station,"357 Bilsen Road, Geebung, Brisbane North",-27.3753,153.056,Brisbane,6,Rail ticket office,,go card,,,Buy,Top up,Register,Refund,Change expiry date,Brisbane,
557,Supanews Bracken Ridge,"Bracken Ridge Plaza Shopping Centre, Corner Telegraph and Norris Roads, Bracken Ridge, Brisbane North",-27.330219,153.026505,Brisbane North,1,Standard retailer,,go card,,,Buy,,,,,,
526,Supanews Green Square,"Shop 7 Green Square North Tower, 515 St Pauls Terrace, Fortitude Valley, Brisbane Central",-27.4536,153.035,Brisbane,1,Standard retailer,,go card,,,Buy,Top up,Change expiry date,,,Brisbane,
104,Supanews Keperra,"Settlement Road, Great Western Super Centre, Keperra, Brisbane North",-27.4151,152.949,Brisbane,1,Standard retailer,,go card,,,Buy,Top up,Change expiry date,,,Brisbane,
111,Supanews North Lakes,"Shop 1085, Westfield Shopping Centre, Anzac Avenue, North Lakes, Northern",-27.2398,153.02,Brisbane,1,Standard retailer,,go card,SEEQ card,Visitor Information Pack,Buy,Top up,Register,Refund,Change expiry date,Brisbane,
555,Supanews Nundah Village,"Shop 9, 1193 Sandgate Road, Nundah, Brisbane North",-27.4028,153.061,Brisbane North,1,Standard retailer,,go card,,,Buy,,,,,Brisbane,
514,Supanews Strathpine,"Westfield Shopping Centre, Gympie Road, Strathpine, Northern",-27.3069,152.993,Brisbane,1,Standard retailer,,go card,,,Buy,Top up,Change expiry date,,,Brisbane,
1836,Supanews Underwood Marketplace,"3215 Logan Road, Underwood, Queensland, Australia",-27.607058,153.10993,Brisbane,1,Standard retailer,,,,,,,,,,Brisbane,
51,Supanews Xpress Central Station Platform 1/2,"Central station (platform 1/2), Ann Street, Brisbane , Brisbane Central",-27.4661,153.026,Brisbane Central,1,Standard retailer,,go card,Visitor Information Pack,,Buy,Top up,Change expiry date,,,Brisbane,
52,Supanews Xpress Central Station Platform 3/4,"Central station (platform 3/4), Ann Street, Brisbane , Brisbane Central",-27.4661,153.026,Brisbane Central,1,Standard retailer,,go card,Visitor Information Pack,,Buy,Top up,Change expiry date,,,Brisbane,
53,Supanews Xpress Central Station Platform 5/6,"Central station (platform 5/6), Ann Street , Brisbane , Brisbane Central",-27.4661,153.026,Brisbane Central,1,Standard retailer,,go card,Visitor Information Pack,,Buy,Top up,Change expiry date,,,Brisbane,
92,Supanews Xpress Helensvale,"Westfield Shopping Centre, Gold Coast Highway, corner Town Centre Drive, Helensvale, Gold Coast",-27.9272,153.336,Gold Coast,1,Standard retailer,,go card,Gold Coast go explore card,,Buy,Top up,Change expiry date,,,Gold Coast,
1206,Surf Parade Resort,"210 Surf Parade, Surfers Paradise, Queensland, Australia",-28.016508,153.431211,,2,Preloaded reseller,,go card,Gold Coast go explore card,,Buy,,,,,Gold Coast,
1146,Surfers Aquarius,"4 Old Burleigh Road, Surfers Paradise, Queensland, Australia",-28.013906,153.432548,,2,Preloaded reseller,,Gold Coast go explore card,,,Buy,,,,,Gold Coast,
1071,Surfers Paradise Backpackers Resort,"2837 Gold Coast Highway, Surfers Paradise, Queensland, Australia",-28.016302,153.429275,,2,Preloaded reseller,,Gold Coast go explore card,,,Buy,,,,,Gold Coast,
1591,Surfers Paradise Cruise Terminal,"Under the Moorings Building, Cnr Cavill & Ferny Ave, Surfers Paradise, Queensland, Australia",-28.001446,153.426385,,2,Preloaded reseller,,,,,,,,,,Gold Coast,
901,Surfers Paradise North tram station,"Corner Surfers Paradise Bouelvard and Ocean Avenue, Surfers Paradise, Queensland, Australia",-27.993316,153.429371,,1,Standard retailer,,go card,,,Buy,Top up,,,,Gold Coast,
916,Surfers Paradise tram station,"Corner Surfers Paradise Boulevard and Clifford Street, Surfers Paradise, Queensland, Australia",-28.005792,153.428966,,1,Standard retailer,,go card,,,Buy,Top up,,,,Gold Coast,
533,Surfside Newsagency,"10 North Street Woorim, Bribie Island, Northern",-27.0683,153.203,Northern,1,Standard retailer,,go card,,,Buy,,,,,,
587,Swan Newsagency,"Shop 137 Sunshine Plaza, Horton Parade, Maroochydore, Sunshine Coast",-26.654877,153.090593,Sunshine Coast,1,Standard retailer,,go card,SEEQ card,Visitor Information Pack,Buy,Top up,Register,Refund,Change expiry date,Sunshine Coast,
188,Taigum News,"Shop 28, Taigum Central Shopping Centre, Beams Road, Taigum, Brisbane North",-27.3507,153.047,Brisbane,1,Standard retailer,,go card,,,Buy,,,,,Brisbane,
489,Target News,"Shop 2 Buranda Village, Ipswich Road, Buranda, Brisbane South",-27.500757,153.036824,Brisbane,1,Standard retailer,,go card,,,Buy,Top up,Change expiry date,,,Brisbane,
452,Taringa station,"1 Princess Street, Taringa, Brisbane West",-27.493,152.982,Brisbane,5,Rail fare machine,,go card,,,Buy,Top up,Register,Refund,Change expiry date,Brisbane,
311,Taringa station,"1 Princess Street, Taringa, Brisbane West",-27.493,152.982,Brisbane,6,Rail ticket office,,,,,Top up,,,,,Brisbane,
1851,Tarragindi LPO and News,"100 Windmill Street, Tarragindi, Queensland, Australia",-27.530451,153.042102,Brisbane,2,Preloaded reseller,,,,,,,,,,Brisbane,
484,Terrace News,"Morris Towers, 149 Wickham Terrace , Spring Hill, Brisbane North",-27.4646,153.025,Brisbane North,1,Standard retailer,,go card,,,Buy,,,,,,
653,Terry White Chemist Bellbowrie,"Shop 29 Bellbowrie Shopping Plaza, Birkin Road, Bellbowrie, Brisbane west",-27.561953,152.886854,Brisbane,1,Standard retailer,,go card,,,Buy,Top up,Change expiry date,,,Brisbane,
516,Tewantin Newsagency,"107 Poinciana Avenue, Tewantin, Sunshine Coast",-26.3921,153.038,Brisbane,1,Standard retailer,,go card,,,Buy,Top up,Change expiry date,,,Brisbane,
313,Thagoona station,"Thagoona-Rosewood Road, Thagoona, Western",-27.6266,152.63,Ipswich,5,Rail fare machine,,,,,Top up,,,,,Ipswich,
679,The Bread Basket,"132 Leicester Street, Camp Hill, Brisbane East",-27.497447,153.067783,Brisbane East,1,Standard retailer,,go card,,,Buy,,,,,,
1156,The Crest Apartments,"15 Breaker Street, Main Beach, Queensland, Australia",-27.981359,153.426897,,2,Preloaded reseller,,Gold Coast go explore card,,,Buy,,,,,Gold Coast,
1511,The Gap Park and Ride,"1371 Waterworks Road, The Gap, Queensland, Australia",-27.445599,152.930148,,4,Bus fare machine,,,,,,,,,,Brisbane,
1076,The Islander,"3128 Surfers Paradise Boulevard, Surfers Paradise, Queensland, Australia",-28.003255,153.428659,,2,Preloaded reseller,,Gold Coast go explore card,,,Buy,,,,,Gold Coast,
1766,The Lucky Charm Everton Park,"97 Flockton Street, Everton Park, Queensland, Australia",-27.394182,152.996736,Brisbane,2,Preloaded reseller,,,,,,,,,,Brisbane,
314,Thomas Street station,"Tallon Street, Sadliers Crossing, Western",-27.6148,152.746,Ipswich,5,Rail fare machine,,,,,Top up,,,,,Ipswich,
315,Thorneside station,"Railway Parade, Thorneside, Eastern",-27.4864,153.193,Redlands,5,Rail fare machine,,,,,Top up,,,,,Redlands,
453,Thorneside station,"Railway Parade, Thorneside, Eastern",-27.4864,153.193,Redlands,6,Rail ticket office,,go card,,,Buy,Top up,Register,Refund,Change expiry date,Redlands,
1161,Ticketmates Harbour Town,"Oxley Drive, Biggera Waters, Queensland, Australia",-27.931162,153.387762,,2,Preloaded reseller,,Gold Coast go explore card,,,Buy,,,,,Gold Coast,
1781,Tickets and Tours Online Portal Broadbeach,"Uitiqa Suite 4 Level 2, Oasis Shopping Centre, Victoria Avenue, Broadbeach, Queensland, Australia",-28.029217,153.431965,Gold Coast,2,Preloaded reseller,,,,,,,,,,Gold Coast,
600,Toombul Bus Interchange,"Toombul Shopping Centre, Toombul, Brisbane North",-27.408392,153.060114,Brisbane North,1,Standard retailer,,go card,,,Buy,Top up,,,,,
316,Toombul station,"Collins Street, Nundah, Brisbane North",-27.4073,153.059,Brisbane,5,Rail fare machine,,,,,Top up,,,,,Brisbane,
131,Toombul station,"Collins Street, Nundah, Brisbane North",-27.4073,153.059,Brisbane,6,Rail ticket office,,go card,,,Buy,Top up,Register,Refund,Change expiry date,Brisbane,
317,Toowong station,"Toowong Village Shopping Centre, Toowong, Brisbane West",-27.4857,152.993,Brisbane West,2,Preloaded reseller,,,,,Top up,,,,,,
168,Toowong station,"Sherwood Road, Toowong, Brisbane West",-27.4857,152.993,Brisbane,6,Rail ticket office,,go card,,,Buy,Top up,Register,Refund,Change expiry date,Brisbane,
170,Town Centre News,"Town Centre Shopping Centre, 355-369 Colburn Avenue, Victoria Point, Eastern",-27.5865,153.283,Brisbane,1,Standard retailer,,go card,,,Buy,Top up,Change expiry date,,,Brisbane,
318,Trinder Park station,"Railway Parade, Trinder Park, Southern",-27.6314,153.098,Logan,5,Rail fare machine,,,,,Top up,,,,,Logan,
454,Trinder Park station,"Railway Parade, Trinder Park, Southern",-27.6314,153.098,Logan,5,Rail fare machine,,go card,,,Buy,Top up,Register,Refund,Change expiry date,Logan,
1751,TSG Lotto Express,"Building 2 Mango Hill Market Place, Cnr Anzac Avenue $ Halpine Drive Mango Hill ",-27.241848,153.025153,South East Queensland,1,Standard retailer,,,,,,,,,,South East Queensland,
673,Tweed Heads Information Centre,"Corner Wharf &amp; Bay Streets, Tweed Heads, Gold Coast",-28.171,153.543691,Gold Coast,1,Standard retailer,,go card,,,Buy,,,,,,
478,Upper Mount Gravatt busway station,"McGregor Street, Upper Mount Gravatt, Brisbane South",-27.5634,153.081,Brisbane South,1,Standard retailer,,go card,,,Buy,Top up,,,,,
603,UQ (Chancellor),"University of Queensland, St Lucia, Brisbane West",-27.498036,153.010862,Brisbane West,4,Bus fare machine,,go card,,,Buy,Top up,,,,,
634,UQ Lakes,"UQ Lakes Busway, Eleanor Schonell Bridge, St Lucia, Brisbane West",-27.498036,153.017093,Brisbane West,1,Standard retailer,,go card,,,Buy,Top up,,,,,
582,Valley Centre News,"Valley Metro Centre, 230 Brunswick St, Fortitude Valley, Brisbane Central",-27.456839,153.03302,Brisbane Central,1,Standard retailer,,go card,,,Buy,,,,,,
350,Varsity Lakes station,"Corner Scottsdale Drive and Cormandel Lane, Varsity Lakes, Gold Coast",-28.094794,153.399531,Gold Coast,5,Rail fare machine,,,,,Top up,,,,,Gold Coast,
349,Varsity Lakes station,"Corner Scottsdale Drive and Cormandel Lane, Varsity Lakes, Gold Coast",-28.096499,153.399049,Gold Coast,6,Rail ticket office,,go card,,,Buy,Top up,Register,Refund,Change expiry date,Gold Coast,
529,Victoria Point West Licensed Post Office,"Shop 54, Victoria Point Shopping Centre, corner Cleveland Redland Bay Road and Bunker Road, Victoria Point, Eastern",-27.5854,153.281,Eastern,1,Standard retailer,,go card,,,Buy,,,,,,
319,Virginia  station,"4 Wellington Street, Virginia, Brisbane North",-27.3829,153.063,Brisbane,5,Rail fare machine,,,,,Top up,,,,,Brisbane,
363,Virginia station,"4 Wellington Street, Virginia, Brisbane North",-27.3829,153.063,Brisbane,6,Rail ticket office,,go card,,,Buy,Top up,Register,Refund,Change expiry date,Brisbane,
1561,Visitor Information Centre (Regent Theatre),"167 Queen Street, Brisbane, Queensland, Australia",-27.469414,153.026006,Brisbane,1,Standard retailer,EFTPOS Sales only - VISA and MasterCard accepted.,,,,,,,,,Brisbane,
320,Wacol  station,"Wilruna Street, Wacol, Western",-27.589,152.924,Brisbane,5,Rail fare machine,,,,,Top up,,,,,Brisbane,
380,Wacol station,"Wilruna Street, Wacol , Western",-27.589,152.924,Brisbane,6,Rail ticket office,,go card,,,Buy,Top up,Register,Refund,Change expiry date,Brisbane,
321,Walloon  station,"Station Lane, Walloon, Western",-27.6073,152.668,Ipswich,5,Rail fare machine,,,,,Top up,,,,,Ipswich,
189,Walton Bridge News,"Shop 10, 974 Waterworks Road , The Gap (Brisbane City), Brisbane North",-27.4451,152.952,Brisbane North,1,Standard retailer,,go card,,,Buy,,,,,,
690,Warrigal Square News,"Warrigal Square Shopping Centre, 16/261 Warrigal Road, Eight Mile Plains, Brisbane South",-27.590132,153.084894,Brisbane South,1,Standard retailer,,go card,,,Buy,Top up,Change expiry date,,,,
523,Waterford Plaza News,"Waterford Plaza, corner Kingston and Taigum Roads , Waterford, Southern",-27.6924,153.136,Southern,1,Standard retailer,,go card,,,Buy,,,,,,
1081,Watermark Hotel & Spa,"3032 Surfers Paradise Boulevard, Surfers Paradise, Queensland, Australia",-28.006013,153.428721,,2,Preloaded reseller,,Gold Coast go explore card,,,Buy,,,,,Gold Coast,
661,Wellington Point News,"Shop 2, 368 Main Road, Wellington Point, Eastern",-27.485334,153.237809,Eastern,1,Standard retailer,,go card,,,Buy,,,,,,
662,Wellington Point Post Office,"Shop 3, 405 Main Road, Wellington Point, Eastern",-27.487198,153.238894,Eastern,1,Standard retailer,,go card,,,Buy,,,,,,
322,Wellington Point station,"Station Street, Wellington Point, Eastern",-27.494284,153.241914,Redlands,5,Rail fare machine,,,,,Top up,,,,,Redlands,
455,Wellington Point station,"Station Street, Wellington Point, Eastern",-27.494284,153.241914,Redlands,6,Rail ticket office,,go card,,,Buy,Top up,Register,Refund,Change expiry date,Redlands,
173,West End News,"199 Boundary Street, West End, Brisbane South",-27.4807,153.012,Brisbane,1,Standard retailer,,go card,,,Buy,Top up,Change expiry date,,,Brisbane,
48,WH Smith Central Station,"Central Concourse, Central Station, Ann Street , Brisbane , Brisbane Central",-27.466,153.026,Brisbane,1,Standard retailer,,go card,SEEQ card,Visitor Information Pack,Buy,Top up,Register,Refund,Change expiry date,Brisbane,
323,Wilston  station,"Newmarket Road, Wilston, Brisbane North",-27.4362,153.019,Brisbane,5,Rail fare machine,,,,,Top up,,,,,Brisbane,
540,Wilston News & Post,"Shop 1, 99 Kedron Brook Road, Wilston, Brisbane North",-27.4322,153.02,Brisbane North,1,Standard retailer,,go card,,,Buy,,,,,,
456,Wilston station,"Newmarket Road, Wilston, Brisbane North",-27.4362,153.019,Brisbane,6,Rail ticket office,,go card,,,Buy,Top up,Register,Refund,Change expiry date,Brisbane,
324,Windsor  station,"Eildon Road, Windsor, Brisbane North",-27.4352,153.029,Brisbane,5,Rail fare machine,,,,,Top up,,,,,Brisbane,
457,Windsor station,"Eildon Road, Windsor, Brisbane North",-27.4352,153.029,Brisbane,6,Rail ticket office,,go card,,,Buy,Top up,Register,Refund,Change expiry date,Brisbane,
611,Winston Glades News,"Shop 9, Ash Street, Flinders View, Western",-27.65422,152.751467,Western,1,Standard retailer,,go card,,,Buy,,,,,,
693,Wirreanda News,"110 King Street, Buderim, Sunshine Coast",-26.682702,153.066338,Sunshine Coast,1,Standard retailer,,go card,,,Buy,,,,,Sunshine Coast,
341,Wishart News,"Civic Fair Shopping Centre, 280 Newnham Rd, Wishart, Brisbane South",-27.547,153.092,Brisbane South,1,Standard retailer,,go card,,,Buy,,,,,,
325,Woodridge  station,"Station Road, Woodridge, Southern",-27.6382,153.104,Logan,5,Rail fare machine,,,,,Top up,,,,,Logan,
177,Woodridge station,"Station Road, Woodridge, Southern",-27.6382,153.104,Logan,6,Rail ticket office,,go card,,,Buy,Top up,Register,Refund,Change expiry date,Logan,
476,Woolloongabba busway station,"corner of Main Street and Stanley Streets, Woolloongabba, Brisbane South",-27.486,153.035,Brisbane South,1,Standard retailer,,go card,,,Buy,Top up,,,,,
326,Wooloowin  station,"Hudson Street, Wooloowin, Brisbane North",-27.42,153.043,Brisbane,5,Rail fare machine,,,,,Top up,,,,,Brisbane,
378,Wooloowin station ,"Hudson Street, Wooloowin , Brisbane North",-27.42,153.043,Brisbane,6,Rail ticket office,,go card,,,Buy,Top up,Register,Refund,Change expiry date,Brisbane,
327,Woombye  station,"Blackall Street, Woombye, Sunshine Coast",-26.6608,152.963,Sunshine Coast,5,Rail fare machine,,,,,Top up,,,,,Sunshine Coast,
1711,Wulkaraka Station,"Grace Street, Wulkuraka, Queensland, Australia",-27.613425,152.733115,Ipswich,5,Rail fare machine,,,,,,,,,,Ipswich,
328,Wulkuraka  station,"Grace Street, Wulkuraka, Western",-27.6135,152.732,Western,2,Preloaded reseller,,,,,Top up,,,,,,
329,Wynnum  station,"Thorn Street, Wynnum, Eastern",-27.4397,153.166,Eastern,2,Preloaded reseller,,,,,Top up,,,,,,
330,Wynnum Central station,"Ronald Street, Wynnum, Eastern",-27.445752,153.170772,Brisbane,5,Rail fare machine,,,,,Top up,,,,,Brisbane,
372,Wynnum Central station,"Ronald Street, Wynnum, Eastern",-27.4452,153.17,Brisbane,6,Rail ticket office,,go card,,,Buy,Top up,Register,Refund,Change expiry date,Brisbane,
190,Wynnum North Newsagency,"Shop 1, 150 Selina Road , Wynnum, Eastern",-27.4368,153.159,Eastern,1,Standard retailer,,go card,,,Buy,,,,,,
331,Wynnum North station,"Cameron Parade, Wynnum, Eastern",-27.4372,153.159,Eastern,2,Preloaded reseller,,,,,Top up,,,,,,
459,Wynnum North station,"Cameron Parade, Wynnum, Eastern",-27.4372,153.159,Brisbane,6,Rail ticket office,,go card,,,Buy,Top up,Register,Refund,Change expiry date,Brisbane,
458,Wynnum station,"Thorn Street, Wynnum, Eastern",-27.4397,153.166,Brisbane,6,Rail ticket office,,go card,,,Buy,Top up,Register,Refund,Change expiry date,Brisbane,
332,Yeerongpilly station,"67 Wilkie Street, Yeerongpilly, Brisbane South",-27.5255,153.014,Brisbane,5,Rail fare machine,,,,,Top up,,,,,Brisbane,
460,Yeerongpilly station,"67 Wilkie Street, Yeerongpilly, Brisbane South",-27.5255,153.014,Brisbane,6,Rail ticket office,,go card,,,Buy,Top up,Register,Refund,Change expiry date,Brisbane,
333,Yeronga  station,"Fairfield Road, Yeronga, Brisbane South",-27.5178,153.017,Brisbane,5,Rail fare machine,,,,,Top up,,,,,Brisbane,
379,Yeronga station,"Fairfield Road, Yeronga, Brisbane South",-27.5178,153.017,Brisbane,6,Rail ticket office,,go card,,,Buy,Top up,Register,Refund,Change expiry date,Brisbane,
334,Zillmere  station,"Zillmere Road, Zillmere, Brisbane North",-27.3593,153.037,Brisbane,5,Rail fare machine,,,,,Top up,,,,,Brisbane,
183,Zillmere station,"Zillmere Road, Zillmere, Brisbane North",-27.3593,153.037,Brisbane,6,Rail ticket office,,go card,,,Buy,Top up,Register,Refund,Change expiry date,Brisbane,
